id,ein,name,alt_name,system_name,addr,city,state,zip,phone,urban_rural,category,control_type,medicare_termination_status,last_updated,file_name,mrf_url,permalink,transparency_page,additional_notes
140001,,GRAHAM HOSPITAL ASSOCIATION,Graham Hospital,,210 WEST WALNUT STREET,CANTON,IL,61520,3096475240,U,Short Term,FOR PROFIT - PARTNERSHIP,ACTIVE PROVIDER,,,,,,
140002,37-0661172,ALTON MEMORIAL HOSPITAL,Alton Memorial Hospital,BJC Healthcare,ONE MEMORIAL DRIVE,ALTON,IL,62002,6184637311,U,Short Term,FOR PROFIT - PARTNERSHIP,ACTIVE PROVIDER,2023-04-28,370661172_AltonMemorialHospital_standardcharges.json,https://www.bjc.org/Portals/0/PDF/rates/370661172_AltonMemorialHospital_standardcharges.json,,https://www.bjc.org/For-Patients-Visitors/Financial-Assistance-Billing-Resources/BJC-Hospital-Rates,
140003,,SARAH D CULBERTSON MEMORIAL HOSPITAL,,,238 S CONGRESS,RUSHVILLE,IL,62681,2173224321,R,Short Term,GOVERNMENT - COUNTY,OTHER-PROVIDER STATUS CHANGE,,,,,,
140004,,ABRAHAM LINCOLN MEMORIAL HOSPITAL,,,315 8TH ST,LINCOLN,IL,62656,2177322161,R,Short Term,FOR PROFIT - CORPORATION,OTHER-PROVIDER STATUS CHANGE,,,,,,
140005,,HARDIN COUNTY GENERAL HOSPITAL,,,FERRELL ROAD,ROSICLARE,IL,62982,6182856634,R,Short Term,FOR PROFIT - PARTNERSHIP,OTHER-PROVIDER STATUS CHANGE,,,,,,
140007,36-4195126,PRESENCE SAINT JOSEPH MEDICAL CENTER,Ascension Saint Joseph-Joliet,Ascension Healthcare,333 N MADISON ST,JOLIET,IL,60435,8157257133,U,Short Term,FOR PROFIT - INDIVIDUAL,ACTIVE PROVIDER,2022-09-30,364195126_amita-health-saint-joseph-medical-center-joliet_standardcharges.xlsx,https://healthcare.ascension.org/-/media/project/ascension/healthcare/price-transparency-files/il/364195126_amita-health-saint-joseph-medical-center-joliet_standardcharges.xlsx,,https://healthcare.ascension.org/price-transparency/price-transparency-files,
140008,,LOYOLA GOTTLIEB MEMORIAL HOSPITAL,Gottlieb Memorial Hospital,Trinity Health,701 WEST NORTH AVE,MELROSE PARK,IL,60160,7086813200,U,Short Term,FOR PROFIT - PARTNERSHIP,ACTIVE PROVIDER,,,,,,
140009,,BEARDSTOWN HOSPITAL,,,BOX 350 BOULEVARD RD,BEARDSTOWN,IL,62618,2173232720,R,Short Term,GOVERNMENT - STATE,"VOLUNTARY-MERGER, CLOSURE",,,,,,
140010,,NORTHSHORE UNIVERSITY HEALTHSYSTEM EVANSTON HOSP,Evanston Hospital,NorthShore University Health System,2650 RIDGE AVE,EVANSTON,IL,60201,8474328000,U,Short Term,FOR PROFIT - CORPORATION,ACTIVE PROVIDER,,,,,,
140011,,HERRIN HOSPITAL,SIH Herrin Hospital,Southern Illinois Healthcare,201 S 14TH ST,HERRIN,IL,62948,6189422171,U,Short Term,FOR PROFIT - PARTNERSHIP,ACTIVE PROVIDER,,,,,,
140012,,KATHERINE SHAW BETHEA HOSPITAL,Katherine Shaw Bethea Hospital,,403 E 1ST ST,DIXON,IL,61021,8152885531,R,Short Term,FOR PROFIT - PARTNERSHIP,ACTIVE PROVIDER,,,,,,
140013,37-0681540,PROCTOR HOSPITAL,Carle Health Proctor Hospital,Unitypoint Health,5409 N KNOXVILLE AVE,PEORIA,IL,61614,3096911000,U,Short Term,FOR PROFIT - PARTNERSHIP,ACTIVE PROVIDER,2023-04-26,370681540_carle-health---proctor-hospital_standardcharges.json,https://search.hospitalpriceindex.com/hpi2/machineReadable/UnityPointHealth-ProctorHospital/7953or,,https://www.unitypoint.org/patients-and-visitors/billing-and-financial-information/price-transparency,
140014,,EUREKA COMMUNITY HOSPITAL,,,101 S MAJOR STREET,EUREKA,IL,61530,3094672371,U,Short Term,FOR PROFIT - INDIVIDUAL,OTHER-PROVIDER STATUS CHANGE,,,,,,
140015,,BLESSING HOSPITAL,Blessing Hospital,Blessing Health System,1005 BROADWAY ST,QUINCY,IL,62301,2172231200,R,Short Term,FOR PROFIT - PARTNERSHIP,ACTIVE PROVIDER,,,,,,
140016,,CLAY COUNTY HOSPITAL,,,911 STACY BURK DRIVE,FLORA,IL,62839,6186622131,R,Short Term,GOVERNMENT - STATE,"VOLUNTARY-MERGER, CLOSURE",,,,,,
140017,,LUTHERAN GEN HOSPITAL-LINCOLN PARK,,,2035 NORTH LINCOLN AVENUE,CHICAGO,IL,60614,3129755050,U,Short Term,FOR PROFIT - INDIVIDUAL,"VOLUNTARY-MERGER, CLOSURE",,,,,,
140018,,MT SINAI HOSPITAL MEDICAL CENTER,Mount Sinai Hospital,Sinai Chicago,1500 S FAIRFIELD AVE,CHICAGO,IL,60608,7735422000,U,Short Term,FOR PROFIT - PARTNERSHIP,ACTIVE PROVIDER,,,,,,
140019,,HSHS GOOD SHEPHERD HOSPITAL INC,HSHS Good Shepherd Hospital,Hospital Sisters Health System,200 S CEDAR ST,SHELBYVILLE,IL,62565,2177743961,R,Short Term,FOR PROFIT - PARTNERSHIP,ACTIVE PROVIDER,,,,,,
140023,,ST JOSEPHS HOSPITAL,,,915 E 5TH ST,ALTON,IL,62002,6184635151,U,Short Term,FOR PROFIT - INDIVIDUAL,"VOLUNTARY-MERGER, CLOSURE",,,,,,
140024,,LAWRENCE COUNTY MEMORIAL HOSPITAL,,,2200 WEST STATE ST,LAWRENCEVILLE,IL,62439,6189431000,R,Short Term,GOVERNMENT - STATE,OTHER-PROVIDER STATUS CHANGE,,,,,,
140025,,MENDOTA COMMUNITY HOSPITAL,,,MEMORIAL DR,MENDOTA,IL,61342,8155397461,R,Short Term,FOR PROFIT - CORPORATION,OTHER-PROVIDER STATUS CHANGE,,,,,,
140026,,ST MARYS HOSPITAL,,,111  SPRING STREET,STREATOR,IL,61364,8156732311,R,Short Term,FOR PROFIT - INDIVIDUAL,"VOLUNTARY-MERGER, CLOSURE",,,,,,
140027,,PERRY MEMORIAL HOSPITAL,,,530 PARK AVENUE E,PRINCETON,IL,61356,8158752811,R,Short Term,GOVERNMENT - STATE,OTHER-PROVIDER STATUS CHANGE,,,,,,
140029,,RUSH COPLEY MEDICAL CENTER,RUSH Copley Medical Center,Rush University Health,2000 OGDEN AVENUE,AURORA,IL,60504,6309786200,U,Short Term,FOR PROFIT - PARTNERSHIP,ACTIVE PROVIDER,,,,,,
140030,,ADVOCATE SHERMAN HOSPITAL,Advocate Sherman Hospital,Advocate Aurora Health,1425 NORTH RANDALL ROAD,ELGIN,IL,60123,8477429800,U,Short Term,FOR PROFIT - PARTNERSHIP,ACTIVE PROVIDER,,,,,,
140031,,PARIS COMMUNITY HOSPITAL,,,EAST COURT STREET,PARIS,IL,61944,2174654141,R,Short Term,FOR PROFIT - CORPORATION,OTHER-PROVIDER STATUS CHANGE,,,,,,
140032,,ST ANTHONYS MEMORIAL HOSPITAL,HSHS Saint Anthony's Memorial Hospital,Hospital Sisters Health System,503 N MAPLE STREET,EFFINGHAM,IL,62401,2173422121,R,Short Term,FOR PROFIT - INDIVIDUAL,ACTIVE PROVIDER,,,,,,
140033,,LAKE BEHAVIORAL HOSPITAL,,,2615 W WASHINGTON ST,WAUKEGAN,IL,60085,8472493900,U,Short Term,NONPROFIT - CHURCH RELATED,OTHER-PROVIDER STATUS CHANGE,,,,,,
140034,,SSM HEALTH ST MARY'S HOSPITAL -CENTRALIA,SSM Health Saint Mary's Hospital-Centralia,SSM Health,400 NORTH PLEASANT AVENUE,CENTRALIA,IL,62801,6184368000,R,Short Term,FOR PROFIT - INDIVIDUAL,ACTIVE PROVIDER,,,,,,
140035,,FRANKLIN HOSPITAL,,,201 BAILEY LANE,BENTON,IL,62812,6184393161,R,Short Term,GOVERNMENT - COUNTY,OTHER-PROVIDER STATUS CHANGE,,,,,,
140036,,KEWANEE HOSPITAL,,,719 ELLIOTT ST,KEWANEE,IL,61443,3098533361,U,Short Term,FOR PROFIT - PARTNERSHIP,OTHER-PROVIDER STATUS CHANGE,,,,,,
140037,,MARSHALL BROWNING HOSPITAL,,,900 N WASHINGTON,DU QUOIN,IL,62832,6185422146,R,Short Term,FOR PROFIT - CORPORATION,OTHER-PROVIDER STATUS CHANGE,,,,,,
140038,,ROCHELLE COMMUNITY HOSPITAL,,,900 N 2ND ST,ROCHELLE,IL,61068,8155622181,R,Short Term,FOR PROFIT - PARTNERSHIP,OTHER-PROVIDER STATUS CHANGE,,,,,,
140039,,FAIRBURY HOSPITAL,,,519 SOUTH 5TH STREET,FAIRBURY,IL,61739,8156922346,R,Short Term,FOR PROFIT - CORPORATION,"VOLUNTARY-MERGER, CLOSURE",,,,,,
140040,,GALESBURG COTTAGE HOSPITAL,,,695 N KELLOGG ST,GALESBURG,IL,61401,3093438131,R,Short Term,NONPROFIT - CHURCH RELATED,INVOLUNTARY-FAILURE TO MEET HEALTH/SAFETY REQ,,,,,,
140041,,HAMMOND-HENRY HOSPITAL,,,600 N COLLEGE AVENUE,GENESEO,IL,61254,3099446431,U,Short Term,GOVERNMENT - COUNTY,OTHER-PROVIDER STATUS CHANGE,,,,,,
140042,,MASSAC MEMORIAL HOSPITAL,,,MEMORIAL HEIGHTS,METROPOLIS,IL,62960,6185242176,R,Short Term,GOVERNMENT - COUNTY,OTHER-PROVIDER STATUS CHANGE,,,,,,
140043,,CGH MEDICAL CENTER,CGH Medical Center,,100 EAST LEFEVRE ROAD,STERLING,IL,61081,8156250400,R,Short Term,GOVERNMENT - STATE,ACTIVE PROVIDER,,,,,,
140045,37-6012895,FAYETTE COUNTY HOSPITAL,,,7TH AND TAYLOR,VANDALIA,IL,62471,6182831231,R,Short Term,GOVERNMENT - COUNTY,OTHER-PROVIDER STATUS CHANGE,2023-01-30,376012895_fayette-county-hospital_standardcharges.csv,https://apps.para-hcfs.com/PTT/FinalLinks/Fayette_V3.aspx,,https://www.sblfch.org/about/hospital-charges/,
140046,,GOOD SAMARITAN REGIONAL HLTH CENTER,SSM Health Good Samaritan Hospital - Mount Vernon,SSM Health,1 GOOD SAMARITAN WAY,MOUNT VERNON,IL,62864,6188991469,R,Short Term,FOR PROFIT - PARTNERSHIP,ACTIVE PROVIDER,,,,,,
140047,,COMMUNITY MEDICAL CTR WESTERN ILL INC,,,1000 W HARLEM AVE,MONMOUTH,IL,61462,3097343141,R,Short Term,GOVERNMENT - STATE,OTHER-PROVIDER STATUS CHANGE,,,,,,
140048,,ADVOCATE TRINITY HOSPITAL,Advocate Trinity Hospital,Advocate Aurora Health,2320 E 93RD ST,CHICAGO,IL,60617,7739675002,U,Short Term,FOR PROFIT - CORPORATION,ACTIVE PROVIDER,,,,,,
140049,,WEST SUBURBAN MEDICAL CENTER,West Suburban Medical Center,,3 ERIE COURT,OAK PARK,IL,60302,7083836200,U,Short Term,FOR PROFIT - CORPORATION,ACTIVE PROVIDER,,,,,,
140051,,SKOKIE HOSPITAL,Skokie Hospital,,9600 GROSS POINT ROAD,SKOKIE,IL,60076,8476779600,U,Short Term,FOR PROFIT - CORPORATION,"VOLUNTARY-MERGER, CLOSURE",,,,,,
140052,,OSF SAINT ANTHONY'S HEALTH CENTER,OSF Saint Anthony's Health Center,OSF Healthcare System,ST ANTHONY'S WAY,ALTON,IL,62002,6184652571,U,Short Term,FOR PROFIT - INDIVIDUAL,ACTIVE PROVIDER,,,,,,
140053,,ST JOHNS HOSPITAL,HSHS Saint John's Hospital,Hospital Sisters Health System,800 E CARPENTER ST,SPRINGFIELD,IL,62769,2175446464,U,Short Term,FOR PROFIT - INDIVIDUAL,ACTIVE PROVIDER,,,,,,
140054,,MACNEAL  HOSPITAL,MacNeal Hospital,Trinity Health,3249 SOUTH OAK PARK AVENUE,BERWYN,IL,60402,7087839100,U,Short Term,NONPROFIT - CHURCH RELATED,ACTIVE PROVIDER,,,,,,
140055,,PINCKNEYVILLE COMMUNITY HOSPITAL,,,101 NORTH WALNUT STREET,PINCKNEYVILLE,IL,62274,6183572187,R,Short Term,GOVERNMENT - COUNTY,OTHER-PROVIDER STATUS CHANGE,,,,,,
140058,,JACKSONVILLE MEMORIAL HOSPITAL,,Memorial Health System,1600 W WALNUT ST,JACKSONVILLE,IL,62650,2172459551,R,Short Term,FOR PROFIT - PARTNERSHIP,OTHER-PROVIDER STATUS CHANGE,,,,,,
140059,,JERSEY COMMUNITY HOSPITAL,Jersey Community Hospital,,400 MAPLE SUMMIT ROAD,JERSEYVILLE,IL,62052,6184986402,U,Short Term,GOVERNMENT - STATE,ACTIVE PROVIDER,,,,,,
140061,,RED BUD REGIONAL HOSPITAL,,,325 SPRING STREET,RED BUD,IL,62278,6182823831,R,Short Term,NONPROFIT - CHURCH RELATED,"VOLUNTARY-MERGER, CLOSURE",,,,,,
140062,36-2169179,PALOS COMMUNITY HOSPITAL,Northwestern Medicine Palos Hospital,Northwestern Memorial Medicine,12251 SOUTH 80TH AVENUE,PALOS HEIGHTS,IL,60463,7089234000,U,Short Term,FOR PROFIT - PARTNERSHIP,ACTIVE PROVIDER,2023-03-01,36-2169179-northwestern-medicine-palos-hospital-standard-charges.json,https://www.nm.org/-/media/northwestern/resources/patients-and-visitors/billing-and-insurance/chargemaster/36-2169179-northwestern-medicine-palos-hospital-standard-charges.json,,https://www.nm.org/patients-and-visitors/billing-and-insurance/chargemaster,
140063,,RUSH OAK PARK HOSPITAL,Rush Oak Park Hospital,Rush University Health,520 S MAPLE AVE,OAK PARK,IL,60304,7083839300,U,Short Term,FOR PROFIT - INDIVIDUAL,ACTIVE PROVIDER,,,,,,
140064,,ST MARY MEDICAL CENTER,OSF Saint Mary Medical Center,OSF Healthcare System,3333 NORTH SEMINARY,GALESBURG,IL,61401,3093443161,R,Short Term,FOR PROFIT - INDIVIDUAL,ACTIVE PROVIDER,,,,,,
140065,,ADVENTHEALTH LA GRANGE,AdventHealth La Grange,AdventHealth,5101 S WILLOW SPRINGS RD,LA GRANGE,IL,60525,7083521200,U,Short Term,FOR PROFIT - INDIVIDUAL,ACTIVE PROVIDER,,,,,,
140066,,KENNETH HALL REGIONAL HOSPITAL,,,129 N 8TH ST,EAST SAINT LOUIS,IL,62201,6182741900,U,Short Term,FOR PROFIT - INDIVIDUAL,"VOLUNTARY-MERGER, CLOSURE",,,,,,
140067,,SAINT FRANCIS MEDICAL CENTER,OSF Saint Francis Medical Center,OSF Healthcare System,530 NE GLEN OAK AVE,PEORIA,IL,61637,3096552000,U,Short Term,FOR PROFIT - PARTNERSHIP,ACTIVE PROVIDER,,,,,,
140068,36-1703630,ROSELAND COMMUNITY HOSPITAL,The New Roseland Community Hospital,,45 W 111TH STREET,CHICAGO,IL,60628,7739953000,U,Short Term,FOR PROFIT - PARTNERSHIP,ACTIVE PROVIDER,2023-04-12,361703630_roseland-community-hospital_standardcharges.csv,https://apps.para-hcfs.com/PTT/FinalLinks/Roseland_V2.aspx,,https://www.roselandhospital.org/cost-of-care-estimate/,
140069,,WASHINGTON COUNTY HOSPITAL,,,603 S GRAND,NASHVILLE,IL,62263,6183278236,R,Short Term,GOVERNMENT - COUNTY,OTHER-PROVIDER STATUS CHANGE,,,,,,
140070,,WOOD RIVER TOWNSHIP HOSPITAL,,,EDWARDSVILLE ROAD,WOOD RIVER,IL,62095,6182543821,U,Short Term,GOVERNMENT - STATE,"VOLUNTARY-MERGER, CLOSURE",,,,,,
140072,,MARTHA WASHINGTON HOSPITAL,,,4055 N WESTERN AVE,CHICAGO,IL,60618,3125839000,U,Short Term,FOR PROFIT - CORPORATION,"VOLUNTARY-MERGER, CLOSURE",,,,,,
140074,,GALENA-STAUSS HOSPITAL,,,215 SUMMITT ST,GALENA,IL,61036,8157771340,R,Short Term,GOVERNMENT - COUNTY,OTHER-PROVIDER STATUS CHANGE,,,,,,
140075,,MICHAEL REESE HOSPITAL & MED CENTER,,,2929 S ELLIS,CHICAGO,IL,60616,3127913545,U,Short Term,FOR PROFIT - PARTNERSHIP,INVOLUNTARY-FAILURE TO MEET HEALTH/SAFETY REQ,,,,,,
140077,,TOUCHETTE REGIONAL HOSPITAL INC,Touchette Regional Hospital,,5900 BOND AVENUE,CENTREVILLE,IL,62207,6183323060,U,Short Term,FOR PROFIT - PARTNERSHIP,ACTIVE PROVIDER,,,,,,
140079,,ST JAMES HOSPITAL & HEALTH CENTERS,,,1423 CHICAGO ROAD,CHICAGO HEIGHTS,IL,60411,7087561000,U,Short Term,FOR PROFIT - INDIVIDUAL,"VOLUNTARY-MERGER, CLOSURE",,,,,,
140080,36-2235165,PRESENCE SAINT FRANCIS HOSPITAL,Ascension Saint Francis,Ascension Healthcare,355 RIDGE AVE,EVANSTON,IL,60202,8473164000,U,Short Term,FOR PROFIT - INDIVIDUAL,ACTIVE PROVIDER,2022-09-30,362235165_amita-health-saint-francis-hospital-evanston_standardcharges.xlsx,https://healthcare.ascension.org/-/media/project/ascension/healthcare/price-transparency-files/il/362235165_amita-health-saint-francis-hospital-evanston_standardcharges.xlsx,,https://healthcare.ascension.org/price-transparency/price-transparency-files,
140081,,MEMORIAL HOSPITAL,,,SOUTH ADAMS STREET,CARTHAGE,IL,62321,2173573131,R,Short Term,FOR PROFIT - PARTNERSHIP,OTHER-PROVIDER STATUS CHANGE,,,,,,
140082,,LOUIS A WEISS MEMORIAL HOSPITAL,Weiss Memorial Hospital,,4646 N MARINE DRIVE,CHICAGO,IL,60640,7738788700,U,Short Term,NONPROFIT - CHURCH RELATED,ACTIVE PROVIDER,,,,,,
140083,,LORETTO HOSPITAL,Loretto Hospital,,645 SOUTH CENTRAL AVE,CHICAGO,IL,60644,7736264300,U,Short Term,FOR PROFIT - CORPORATION,ACTIVE PROVIDER,,,,,,
140084,,VISTA MEDICAL CENTER EAST,Vista Medical Center East,,1324 NORTH SHERIDAN ROAD,WAUKEGAN,IL,60085,8473603000,U,Short Term,NONPROFIT - CHURCH RELATED,ACTIVE PROVIDER,,,,,,
140085,,CENTRAL COMMUNITY HOSPITAL,,,5701 SOUTH WOOD STREET,CHICAGO,IL,60636,3127374600,U,Short Term,FOR PROFIT - CORPORATION,"VOLUNTARY-MERGER, CLOSURE",,,,,,
140086,,COMMUNITY MEMORIAL HOSPITAL,,,400 CALDWELL,STAUNTON,IL,62088,6186352200,U,Short Term,FOR PROFIT - CORPORATION,OTHER-PROVIDER STATUS CHANGE,,,,,,
140087,,EDGEWATER MEDICAL CENTER,,,5700 N ASHLAND AVENUE,CHICAGO,IL,60660,7738786000,U,Short Term,FOR PROFIT - CORPORATION,"VOLUNTARY-MERGER, CLOSURE",,,,,,
140088,,THE UNIVERSITY OF CHICAGO MEDICAL CENTER,UChicago Medicine,University of Chicago Medicine,5841 SOUTH MARYLAND,CHICAGO,IL,60637,7737021000,U,Short Term,FOR PROFIT - PARTNERSHIP,ACTIVE PROVIDER,,,,,,
140089,,MC DONOUGH DISTRICT HOSPITAL,McDonough District Hospital,,525 EAST GRANT STREET,MACOMB,IL,61455,3098334101,R,Short Term,GOVERNMENT - COUNTY,ACTIVE PROVIDER,,,,,,
140090,,COLUMBUS HOSPITAL,,,2520 N LAKEVIEW AVENUE,CHICAGO,IL,60614,3128837300,U,Short Term,FOR PROFIT - INDIVIDUAL,"VOLUNTARY-MERGER, CLOSURE",,,,,,
140091,,THE CARLE FOUNDATION HOSPITAL,Carle Foundation Hospital,Carle Health,611 WEST PARK STREET,URBANA,IL,61801,8887122753,U,Short Term,FOR PROFIT - PARTNERSHIP,ACTIVE PROVIDER,,,,,,
140093,,OSF SACRED HEART MEDICAL CENTER,OSF Sacred Heart Medical Center,OSF Healthcare System,812 N LOGAN AVE,DANVILLE,IL,61832,2174435000,U,Short Term,FOR PROFIT - INDIVIDUAL,ACTIVE PROVIDER,,,,,,
140094,36-2235165,ST MARY & ELIZABETH MED CTR-CLAREMONT CAMPUS,Ascension Saint Elizabeth,,1431 N CLAREMONT AVE,CHICAGO,IL,60622,7332782000,U,Short Term,FOR PROFIT - INDIVIDUAL,"VOLUNTARY-MERGER, CLOSURE",2022-09-30,362235165_amita-health-saints-mary-and-elizabeth-medical-center-chicago_standardcharges.xlsx,https://healthcare.ascension.org/-/media/project/ascension/healthcare/price-transparency-files/il/362235165_amita-health-saints-mary-and-elizabeth-medical-center-chicago_standardcharges.xlsx,,https://healthcare.ascension.org/price-transparency/price-transparency-files,
140095,,SAINT ANTHONY HOSPITAL,Saint Anthony Hospital,,2875 WEST 19TH STREET,CHICAGO,IL,60623,7735211710,U,Short Term,FOR PROFIT - PARTNERSHIP,ACTIVE PROVIDER,,,,,,
140097,,HOOPESTON COMM MEMORIAL HOSPITAL,,,701 EAST ORANGE ST,HOOPESTON,IL,60942,2172835531,U,Short Term,FOR PROFIT - PARTNERSHIP,OTHER-PROVIDER STATUS CHANGE,,,,,,
140098,,THC - CHICAGO,,,4058 W MELROSE STREET,CHICAGO,IL,60641,3127367000,U,Short Term,NONPROFIT - CHURCH RELATED,OTHER-PROVIDER STATUS CHANGE,,,,,,
140099,,MT SINAI HOSPITAL - NORTH,,,2451 W HOWARD STREET,CHICAGO,IL,60645,3127616000,U,Short Term,FOR PROFIT - CORPORATION,"VOLUNTARY-MERGER, CLOSURE",,,,,,
140100,,"MIDWESTERN REGION MED CENTER, INC",City of Hope Chicago Comprehensive Care and Research Center,,2520 ELISHA AVENUE,ZION,IL,60099,8478724561,U,Short Term,NONPROFIT - CHURCH RELATED,ACTIVE PROVIDER,,,,,,
140101,36-2170155,MORRIS HOSPITAL & HEALTHCARE CENTERS,Morris Hospital,,150 W HIGH ST,MORRIS,IL,60450,8159422932,U,Short Term,FOR PROFIT - PARTNERSHIP,ACTIVE PROVIDER,2023-02-04,362170155_morris-hospital-&-healthcare-centers_standardcharges.csv,https://apps.para-hcfs.com/PTT/FinalLinks/Morris_V3.aspx,,https://www.morrishospital.org/patients-visitors/patients/billing-insurance/,
140102,,ST VINCENT MEMORIAL HOSPITAL,,,201 EAST PLEASANT ST,TAYLORVILLE,IL,62568,2178243331,R,Short Term,FOR PROFIT - INDIVIDUAL,OTHER-PROVIDER STATUS CHANGE,,,,,,
140103,,ST BERNARD HOSPITAL,Saint Bernard Hospital and Health Care Center,,326 W 64TH ST,CHICAGO,IL,60621,7739623900,U,Short Term,FOR PROFIT - INDIVIDUAL,ACTIVE PROVIDER,,,,,,
140104,,MENNONITE HOSPITAL,,,807 N MAIN ST,BLOOMINGTON,IL,61701,3098274321,U,Short Term,FOR PROFIT - INDIVIDUAL,"VOLUNTARY-MERGER, CLOSURE",,,,,,
140105,,HOLY FAMILY MEDICAL CENTER,,,100 N RIVER RD,DES PLAINES,IL,60016,8472971800,U,Short Term,FOR PROFIT - PARTNERSHIP,"VOLUNTARY-MERGER, CLOSURE",,,,,,
140107,,CORNERSTONE HEALTHCARE OF ILLINOIS INC,,,400 PLUM STREET,CARMI,IL,62821,6183824171,R,Short Term,GOVERNMENT - COUNTY,OTHER-PROVIDER STATUS CHANGE,,,,,,
140108,,HIGHLAND PARK HOSPITAL,,,718 GLENVIEW AVE,HIGHLAND PARK,IL,60035,8474328000,U,Short Term,FOR PROFIT - CORPORATION,"VOLUNTARY-MERGER, CLOSURE",,,,,,
140109,,SPARTA COMMUNITY HOSPITAL DISTRICT,,,818 E BROADWAY,SPARTA,IL,62286,6184432177,R,Short Term,GOVERNMENT - COUNTY,"VOLUNTARY-MERGER, CLOSURE",,,,,,
140110,,OSF SAINT ELIZABETH MEDICAL CENTER,OSF Saint Elizabeth Medical Center,OSF Healthcare System,1100 E NORRIS DRIVE,OTTAWA,IL,61350,8154333100,R,Short Term,FOR PROFIT - PARTNERSHIP,ACTIVE PROVIDER,,,,,,
140111,,WALTHER MEMORIAL HOSPITAL,,,1116 N KEDZIE AVE,CHICAGO,IL,60651,3122273100,U,Short Term,FOR PROFIT - INDIVIDUAL,"VOLUNTARY-MERGER, CLOSURE",,,,,,
140112,,MASON DISTRICT HOSPITAL,,,520 EAST FRANKLIN STREET,HAVANA,IL,62644,3095434431,R,Short Term,GOVERNMENT - COUNTY,OTHER-PROVIDER STATUS CHANGE,,,,,,
140113,,OSF HEART OF MARY MEDICAL CENTER,OSF Heart of Mary Medical Center,OSF Healthcare System,1400 WEST PARK AVENUE,URBANA,IL,61801,2173372000,U,Short Term,FOR PROFIT - INDIVIDUAL,ACTIVE PROVIDER,,,,,,
140114,,SWEDISH HOSPITAL,Swedish Hospital,NorthShore University Health System,5145 N CALIFORNIA AVE,CHICAGO,IL,60625,7738788200,U,Short Term,FOR PROFIT - INDIVIDUAL,ACTIVE PROVIDER,,,,,,
140115,,THOREK MEMORIAL HOSPITAL,Thorek Memorial Hospital,,850 W IRVING PARK RD,CHICAGO,IL,60613,7735256780,U,Short Term,FOR PROFIT - PARTNERSHIP,ACTIVE PROVIDER,,,,,,
140116,36-2338884,NORTHWESTERN MEDICINE MCHENRY HOSPITAL,Northwestern Medicine McHenry Hospital,Northwestern Memorial Medicine,4201 MEDICAL CENTER DRIVE,MCHENRY,IL,60050,8153445000,U,Short Term,FOR PROFIT - CORPORATION,ACTIVE PROVIDER,2023-03-01,36-2338884-northwestern-medicine-mchenry-hospital-standard-charges.json,https://www.nm.org/-/media/northwestern/resources/patients-and-visitors/billing-and-insurance/chargemaster/36-2338884-northwestern-medicine-mchenry-hospital-standard-charges.json,,https://www.nm.org/patients-and-visitors/billing-and-insurance/chargemaster,
140117,36-2235165,PRESENCE RESURRECTION MEDICAL CENTER,Ascension Resurrection,Ascension Healthcare,7435 W TALCOTT AVENUE,CHICAGO,IL,60631,7737748000,U,Short Term,FOR PROFIT - INDIVIDUAL,ACTIVE PROVIDER,2022-09-30,362235165_amita-health-resurrection-medical-center-chicago_standardcharges.xlsx,https://healthcare.ascension.org/-/media/project/ascension/healthcare/price-transparency-files/il/362235165_amita-health-resurrection-medical-center-chicago_standardcharges.xlsx,,https://healthcare.ascension.org/price-transparency/price-transparency-files,
140118,,METROSOUTH MEDICAL CENTER,,,12935 S GREGORY,BLUE ISLAND,IL,60406,7085972000,U,Short Term,NONPROFIT - CHURCH RELATED,"VOLUNTARY-MERGER, CLOSURE",,,,,,
140119,,RUSH UNIVERSITY MEDICAL CENTER,Rush University Medical Center,Rush University Health,1653 WEST CONGRESS PARKWAY,CHICAGO,IL,60612,3129425000,U,Short Term,FOR PROFIT - PARTNERSHIP,ACTIVE PROVIDER,,,,,,
140120,37-0692351,PEKIN MEMORIAL HOSPITAL,Carle Health Pekin Hospital,Unitypoint Health,600 SOUTH 13TH STREET,PEKIN,IL,61554,3093471151,U,Short Term,FOR PROFIT - PARTNERSHIP,ACTIVE PROVIDER,2023-04-26,370692351_carle-health---pekin-hospital_standardcharges.json,https://search.hospitalpriceindex.com/hpi2/machineReadable/UnityPointHealth-Pekin/7952or,,https://www.unitypoint.org/patients-and-visitors/billing-and-financial-information/price-transparency,
140121,,HOPEDALE HOSPITAL,,,107 TREMONT STREET,HOPEDALE,IL,61747,3094493321,U,Short Term,FOR PROFIT - CORPORATION,OTHER-PROVIDER STATUS CHANGE,,,,,,
140122,,ADVENTHEALTH HINSDALE,UChicago Medicine AdventHealth Hinsdale,AdventHealth,120 NORTH OAK ST,HINSDALE,IL,60521,6308569000,U,Short Term,FOR PROFIT - PARTNERSHIP,ACTIVE PROVIDER,,,,,,
140123,,TRINITY MEDICAL CENTER-EAST,,,501 10TH AVE,MOLINE,IL,61265,3097573131,U,Short Term,FOR PROFIT - PARTNERSHIP,"VOLUNTARY-MERGER, CLOSURE",,,,,,
140124,,JOHN H STROGER JR HOSPITAL,"John H. Stroger, Jr. Hospital of Cook County",,1901 W HARRISON ST,CHICAGO,IL,60612,3128646000,U,Short Term,GOVERNMENT - STATE,ACTIVE PROVIDER,,,,,,
140125,,GATEWAY REGIONAL MEDICAL CENTER,Gateway Regional Medical Center,,2100 MADISON AVENUE,GRANITE CITY,IL,62040,6187983000,U,Short Term,FOR PROFIT - CORPORATION,ACTIVE PROVIDER,,,,,,
140126,,COVENANT MEDICAL CTR-CHAMPAIGN CAMPUS,,,407 S 4TH ST,CHAMPAIGN,IL,61820,2173372500,U,Short Term,GOVERNMENT - STATE,"VOLUNTARY-MERGER, CLOSURE",,,,,,
140127,,CARLE BROMENN MEDICAL CENTER,Carle BroMenn Medical Center,Carle Health,1304 FRANKLIN AVENUE,NORMAL,IL,61761,3094541400,U,Short Term,FOR PROFIT - INDIVIDUAL,ACTIVE PROVIDER,,,,,,
140128,,SAINT JOSEPH HOSPITAL,,,1005 JULIEN ST,BELVIDERE,IL,61008,8155443411,U,Short Term,FOR PROFIT - CORPORATION,"VOLUNTARY-MERGER, CLOSURE",,,,,,
140129,,WABASH GENERAL HOSPITAL DISTRICT,,,1418 COLLEGE DR,MOUNT CARMEL,IL,62863,6182628621,R,Short Term,GOVERNMENT - COUNTY,OTHER-PROVIDER STATUS CHANGE,,,,,,
140130,36-2179779,NORTHWESTERN LAKE FOREST HOSPITAL,Northwestern Medicine Lake Forest Hospital,Northwestern Memorial Medicine,1000 N WESTMORELAND ROAD,LAKE FOREST,IL,60045,8472345600,U,Short Term,FOR PROFIT - CORPORATION,ACTIVE PROVIDER,2023-03-01,36-2179779-northwestern-medicine-lake-forest-hospital-standard-charges.json,https://www.nm.org/-/media/northwestern/resources/patients-and-visitors/billing-and-insurance/chargemaster/36-2179779-northwestern-medicine-lake-forest-hospital-standard-charges.json,,https://www.nm.org/patients-and-visitors/billing-and-insurance/chargemaster,
140131,,HENROTIN HOSPITAL,,,111 W OAK ST,CHICAGO,IL,60610,3124407700,U,Short Term,FOR PROFIT - CORPORATION,"VOLUNTARY-MERGER, CLOSURE",,,,,,
140132,,ILLINOIS MASONIC MEDICAL CENTER,,,836 W WELLINGTON,CHICAGO,IL,60657,7739751600,U,Short Term,FOR PROFIT - INDIVIDUAL,"VOLUNTARY-MERGER, CLOSURE",,,,,,
140133,,HOLY CROSS HOSPITAL,Holy Cross Hospital,Sinai Chicago,2701 W 68TH STREET,CHICAGO,IL,60629,7738849000,U,Short Term,FOR PROFIT - PARTNERSHIP,ACTIVE PROVIDER,,,,,,
140134,,FRANK CUNEO MEMORIAL HOSPITAL,,,750 W MONTROSE,CHICAGO,IL,60613,3128837300,U,Short Term,FOR PROFIT - INDIVIDUAL,"VOLUNTARY-MERGER, CLOSURE",,,,,,
140135,,DECATUR MEMORIAL HOSPITAL,Decatur Memorial Hospital,Memorial Health System,2300 NORTH EDWARD STREET,DECATUR,IL,62526,2178768121,U,Short Term,FOR PROFIT - CORPORATION,ACTIVE PROVIDER,,,,,,
140136,,"HOSPITAL OF ENGLEWOOD,THE",,,6001 S GREEN STREET,CHICAGO,IL,60621,9625000,U,Short Term,FOR PROFIT - CORPORATION,"VOLUNTARY-MERGER, CLOSURE",,,,,,
140137,,HSHS HOLY FAMILY HOSPITAL,HSHS Holy Family Hospital,Hospital Sisters Health System,200 HEALTH CARE DR,GREENVILLE,IL,62246,6186641230,U,Short Term,FOR PROFIT - INDIVIDUAL,ACTIVE PROVIDER,,,,,,
140138,,FAIRFIELD MEMORIAL HOSPITAL,,,N W 11TH ST,FAIRFIELD,IL,62837,6188422611,R,Short Term,FOR PROFIT - PARTNERSHIP,OTHER-PROVIDER STATUS CHANGE,,,,,,
140139,,ILLINI COMMUNITY HOSPITAL,,,640 WEST WASHINGTON ST,PITTSFIELD,IL,62363,2172852113,R,Short Term,FOR PROFIT - CORPORATION,OTHER-PROVIDER STATUS CHANGE,,,,,,
140140,,ST JOSEPH MEMORIAL HOSPITAL,,,800 N 2ND ST,MURPHYSBORO,IL,62966,6186843156,U,Short Term,FOR PROFIT - INDIVIDUAL,OTHER-PROVIDER STATUS CHANGE,,,,,,
140141,,CARLINVILLE AREA HOSPITAL,,,1001 E MORGAN ST,CARLINVILLE,IL,62626,2178543141,U,Short Term,FOR PROFIT - CORPORATION,"VOLUNTARY-MERGER, CLOSURE",,,,,,
140142,,SYCAMORE MUNICIPAL HOSPITAL,,,225 EDWARD STREET,SYCAMORE,IL,60178,8158952144,U,Short Term,GOVERNMENT - STATE,OTHER-PROVIDER STATUS CHANGE,,,,,,
140143,,ST MARGARET'S HEALTH SPRING VALLEY,Saint Margaret's Health-Spring Valley,,600 E 1ST ST,SPRING VALLEY,IL,61362,8156645311,R,Short Term,FOR PROFIT - PARTNERSHIP,ACTIVE PROVIDER,,,,,,
140144,,HARVARD COMMUNITY MEMORIAL HOSPITAL,,,901 GRANT ST,HARVARD,IL,60033,8159435431,U,Short Term,GOVERNMENT - COUNTY,OTHER-PROVIDER STATUS CHANGE,,,,,,
140145,,ST JOSEPHS HOSPITAL,HSHS St. Joseph's Hospital Breese,Hospital Sisters Health System,9515 HOLY CROSS LN,BREESE,IL,62230,6185264511,U,Short Term,FOR PROFIT - INDIVIDUAL,ACTIVE PROVIDER,,,,,,
140146,,DR JOHN WARNER HOSPITAL,,,422 W WHITE STREET,CLINTON,IL,61727,2179359571,R,Short Term,GOVERNMENT - STATE,OTHER-PROVIDER STATUS CHANGE,,,,,,
140147,,CARLE RICHLAND MEMORIAL HOSPITAL,Carle Richland Memorial Hospital,Carle Health,501 S WEST ST,OLNEY,IL,62450,6183952131,R,Short Term,FOR PROFIT - PARTNERSHIP,ACTIVE PROVIDER,,,,,,
140148,,MEMORIAL MEDICAL CENTER,Springfield Memorial Hospital,Memorial Health System,701 N FIRST ST,SPRINGFIELD,IL,62702,2177883000,U,Short Term,FOR PROFIT - PARTNERSHIP,ACTIVE PROVIDER,,,,,,
140150,,UNIVERSITY OF ILLINOIS HOSPITAL AND CLINICS,University of Illinois Medical Center,,1740 WEST TAYLOR ST SUITE 1400,CHICAGO,IL,60612,3129963900,U,Short Term,NONPROFIT - OTHER,ACTIVE PROVIDER,,,,,,
140151,,SACRED HEART HOSPITAL,,,3240 W FRANKLIN BLVD,CHICAGO,IL,60624,7737223020,U,Short Term,NONPROFIT - CHURCH RELATED,INVOLUNTARY-FAILURE TO MEET HEALTH/SAFETY REQ,,,,,,
140152,,ADVOCATE BETHANY HOSPITAL,,,3435 W VAN BUREN,CHICAGO,IL,60624,7732653588,U,Short Term,FOR PROFIT - INDIVIDUAL,"VOLUNTARY-MERGER, CLOSURE",,,,,,
140153,,CHICAGO CENTER HOSPITAL,,,426 WEST WISCONSIN,CHICAGO,IL,60614,3127514300,U,Short Term,FOR PROFIT - CORPORATION,"VOLUNTARY-MERGER, CLOSURE",,,,,,
140154,,DELNOR COMMUNITY HOSPITAL-ST CHARLES,,,975 N 5TH AVE,SAINT CHARLES,IL,60174,7085843300,U,Short Term,FOR PROFIT - CORPORATION,"VOLUNTARY-MERGER, CLOSURE",,,,,,
140155,36-4195126,PRESENCE ST MARYS HOSPITAL,Ascension Saint Mary- Kankakee,Ascension Healthcare,500 W COURT ST,KANKAKEE,IL,60901,8159372490,U,Short Term,FOR PROFIT - INDIVIDUAL,ACTIVE PROVIDER,2022-09-30,364195126_amita-health-st-marys-hospital-kankakee_standardcharges.xlsx,https://healthcare.ascension.org/-/media/project/ascension/healthcare/price-transparency-files/il/364195126_amita-health-st-marys-hospital-kankakee_standardcharges.xlsx,,https://healthcare.ascension.org/price-transparency/price-transparency-files,
140156,,ST ANNS HOSPITAL OF CHICAGO INC,,,4950 W THOMAS ST,CHICAGO,IL,60651,3123787100,U,Short Term,FOR PROFIT - INDIVIDUAL,"VOLUNTARY-MERGER, CLOSURE",,,,,,
140157,,PAXTON COMMUNITY HOSPITAL,,,651 E PELLS ST,PAXTON,IL,60957,2173794811,R,Short Term,FOR PROFIT - CORPORATION,VOLUNTARY-OTHER REASON FOR WITHDRAWAL,,,,,,
140158,,INSIGHT HOSPITAL AND MEDICAL CENTER CHICAGO,INSIGHT Hospital and Medical Center Chicago,,2525 S MICHIGAN AVE,CHICAGO,IL,60616,3125672000,U,Short Term,FOR PROFIT - PARTNERSHIP,ACTIVE PROVIDER,,,,,,
140159,,ST MARY HOSPITAL INC,,,1415 VERMONT STREET,QUINCY,IL,62301,2172231200,R,Short Term,FOR PROFIT - INDIVIDUAL,"VOLUNTARY-MERGER, CLOSURE",,,,,,
140160,36-2181997,FHN MEMORIAL HOSPITAL,FHN Memorial Hospital,,1045 WEST STEPHENSON STREET,FREEPORT,IL,61032,8155996000,R,Short Term,FOR PROFIT - CORPORATION,ACTIVE PROVIDER,2023-02-02,362181997_fhn-memorial-hospital_standardcharges.csv,https://apps.para-hcfs.com/PTT/FinalLinks/FHN-IL_V3.aspx,,https://www.fhn.org/estimates-pricing.asp,
140161,,SAINT JAMES HOSPITAL,OSF Saint James-John W. Albrecht Medical Center,OSF Healthcare System,2500 WEST REYNOLDS STREET,PONTIAC,IL,61764,8158422828,R,Short Term,FOR PROFIT - INDIVIDUAL,ACTIVE PROVIDER,,,,,,
140162,,ST JOSEPH MEDICAL CENTER,OSF Saint Joseph Medical Center,OSF Healthcare System,2200 E WASHINGTON,BLOOMINGTON,IL,61701,3096623311,U,Short Term,FOR PROFIT - INDIVIDUAL,ACTIVE PROVIDER,,,,,,
140163,,SOUTHERN MEDICAL CENTER,,,2020 CEDAR STREET,CAIRO,IL,62914,6187342400,U,Short Term,FOR PROFIT - CORPORATION,INVOLUNTARY-FAILURE TO MEET HEALTH/SAFETY REQ,,,,,,
140164,,MEMORIAL HOSPITAL OF CARBONDALE,Memorial Hospital of Carbondale,Southern Illinois Healthcare,405 W JACKSON,CARBONDALE,IL,62901,6185490721,U,Short Term,FOR PROFIT - PARTNERSHIP,ACTIVE PROVIDER,,,,,,
140165,,SALEM TOWNSHIP HOSPITAL,,,1201 RICKER DRIVE,SALEM,IL,62881,6185483194,R,Short Term,GOVERNMENT - STATE,OTHER-PROVIDER STATUS CHANGE,,,,,,
140166,,ST MARYS HOSPITAL,HSHS Saint Mary's Hospital,Hospital Sisters Health System,1800 E LAKE SHORE DR,DECATUR,IL,62521,2174642966,U,Short Term,FOR PROFIT - PARTNERSHIP,ACTIVE PROVIDER,,,,,,
140167,,IROQUOIS MEMORIAL HOSPITAL,Iroquois Memorial Hospital,,200 FAIRMAN STREET,WATSEKA,IL,60970,8154325201,R,Short Term,FOR PROFIT - PARTNERSHIP,ACTIVE PROVIDER,,,,,,
140168,,ST JOSEPHS HOSPITAL,,,1515 MAIN STREET,HIGHLAND,IL,62249,6186547421,U,Short Term,FOR PROFIT - INDIVIDUAL,"VOLUNTARY-MERGER, CLOSURE",,,,,,
140170,,UNION COUNTY HOSPITAL,,,517 N MAIN STREET,ANNA,IL,62906,6188334511,R,Short Term,GOVERNMENT - COUNTY,OTHER-PROVIDER STATUS CHANGE,,,,,,
140171,,HAMILTON MEMORIAL HOSPITAL,,,611 S MARSHALL,MCLEANSBORO,IL,62859,6186432361,R,Short Term,GOVERNMENT - COUNTY,OTHER-PROVIDER STATUS CHANGE,,,,,,
140172,36-2167869,FRANCISCAN HEALTH OLYMPIA & CHICAGO HEIGHTS,Franciscan Health Olympia Fields Campus,Franciscan Health,20201 S CRAWFORD AVENUE,OLYMPIA FIELDS,IL,60461,7087474000,U,Short Term,FOR PROFIT - INDIVIDUAL,ACTIVE PROVIDER,2022-05-02,362167869_franciscan-health-olympia-fields_standardcharges.csv,https://media.franciscanhealth.org/-/patient-resources/standard-charges/362167869_franciscan-health-olympia-fields_standardcharges.csv,,https://www.franciscanhealth.org/patient-resources/price-quotes-and-charges,
140173,,MORRISON COMMUNITY HOSPITAL,,,303 N JACKSON STREET,MORRISON,IL,61270,8157724003,R,Short Term,GOVERNMENT - COUNTY,OTHER-PROVIDER STATUS CHANGE,,,,,,
140174,36-4195126,PRESENCE MERCY MEDICAL CENTER,Ascension Mercy in Aurora,Ascension Healthcare,1325 N HIGHLAND AVENUE,AURORA,IL,60506,6308592222,U,Short Term,FOR PROFIT - INDIVIDUAL,ACTIVE PROVIDER,2022-09-30,364195126_amita-health-mercy-medical-center-aurora_standardcharges.xlsx,https://healthcare.ascension.org/-/media/project/ascension/healthcare/price-transparency-files/il/364195126_amita-health-mercy-medical-center-aurora_standardcharges.xlsx,,https://healthcare.ascension.org/price-transparency/price-transparency-files,
140176,36-2338884,CENTEGRA HEALTH SYSTEM - WOODSTOCK HOSPITAL,Northwestern Medicine Woodstock Hospital,,3701 DOTY ROAD,WOODSTOCK,IL,60098,8157885823,U,Short Term,FOR PROFIT - PARTNERSHIP,"VOLUNTARY-MERGER, CLOSURE",2023-03-01,36-2338884-northwestern-medicine-woodstock-hospital-standard-charges.json,https://www.nm.org/-/media/northwestern/resources/patients-and-visitors/billing-and-insurance/chargemaster/36-2338884-northwestern-medicine-woodstock-hospital-standard-charges.json,,https://www.nm.org/patients-and-visitors/billing-and-insurance/chargemaster,
140177,,JACKSON PARK HOSPITAL,Jackson Park Hospital,,7531 S STONY ISLAND AVE,CHICAGO,IL,60649,7739477500,U,Short Term,FOR PROFIT - PARTNERSHIP,ACTIVE PROVIDER,,,,,,
140178,,WOODLAWN HOSPITAL,,,6060 S DREXEL AVENUE,CHICAGO,IL,60637,3127523300,U,Short Term,FOR PROFIT - INDIVIDUAL,"VOLUNTARY-MERGER, CLOSURE",,,,,,
140179,,OSF LITTLE COMPANY OF MARY MEDICAL CENTER,OSF Little Company of Mary Medical Center,OSF Healthcare System,2800 W 95TH ST,EVERGREEN PARK,IL,60805,7084226200,U,Short Term,FOR PROFIT - CORPORATION,ACTIVE PROVIDER,,,,,,
140180,36-2235165,PRESENCE SAINTS MARY AND ELIZABETH MEDICAL CENTER,Ascension Saint Mary -Chicago,Ascension Healthcare,2233 W DIVISION ST,CHICAGO,IL,60622,3127702000,U,Short Term,FOR PROFIT - INDIVIDUAL,ACTIVE PROVIDER,2022-09-30,362235165_amita-health-saints-mary-and-elizabeth-medical-center-chicago_standardcharges.xlsx,https://healthcare.ascension.org/-/media/project/ascension/healthcare/price-transparency-files/il/362235165_amita-health-saints-mary-and-elizabeth-medical-center-chicago_standardcharges.xlsx,,,
140181,,SOUTH SHORE HOSPITAL,South Shore Hospital,,8012 SOUTH CRANDON AVENUE,CHICAGO,IL,60617,7733565000,U,Short Term,FOR PROFIT - PARTNERSHIP,ACTIVE PROVIDER,,,,,,
140182,,ADVOCATE ILLINOIS MASONIC MEDICAL CENTER,Advocate Illinois Masonic Medical Center,Advocate Aurora Health,836 WEST WELLINGTON AVENUE,CHICAGO,IL,60657,7739751600,U,Short Term,FOR PROFIT - PARTNERSHIP,ACTIVE PROVIDER,,,,,,
140184,,HEARTLAND REGIONAL MEDICAL CENTER,Heartland Regional Medical Center,,3333 W DEYOUNG,MARION,IL,62959,6189987000,U,Short Term,NONPROFIT - CHURCH RELATED,ACTIVE PROVIDER,,,,,,
140185,37-0635502,MEMORIAL HOSPITAL,Memorial Hospital Belleville,BJC Healthcare,4500 MEMORIAL DRIVE,BELLEVILLE,IL,62226,6182337750,U,Short Term,FOR PROFIT - PARTNERSHIP,ACTIVE PROVIDER,2023-04-28,370635502_MemorialHospital_standardcharges.json,https://www.bjc.org/Portals/0/PDF/rates/370635502_MemorialHospital_standardcharges.json,,https://www.bjc.org/For-Patients-Visitors/Financial-Assistance-Billing-Resources/BJC-Hospital-Rates,
140186,,RIVERSIDE MEDICAL CENTER,Riverside Medical Center,,350 N WALL ST,KANKAKEE,IL,60901,8159331671,U,Short Term,FOR PROFIT - PARTNERSHIP,ACTIVE PROVIDER,,,,,,
140187,,HSHS ST ELIZABETH'S HOSPITAL,"HSHS Saint Elizabeth's Hospital - O'Fallon, IL -",Hospital Sisters Health System,ONE ST ELIZABETH BOULEVARD,O FALLON,IL,62269,6182342120,U,Short Term,FOR PROFIT - INDIVIDUAL,ACTIVE PROVIDER,,,,,,
140188,,THOMAS H BOYD MEMORIAL HOSPITAL,,,800 SCHOOL STREET,CARROLLTON,IL,62016,2179426946,R,Short Term,FOR PROFIT - CORPORATION,OTHER-PROVIDER STATUS CHANGE,,,,,,
140189,23-7098532,SARAH BUSH LINCOLN HEALTH CENTER,Sarah Bush Lincoln Health Center,,1000 HEALTH CENTER DRIVE P O BOX 372,MATTOON,IL,61938,2172582513,R,Short Term,FOR PROFIT - PARTNERSHIP,ACTIVE PROVIDER,2023-01-10,237098532_sarah-bush-lincoln-health-center_standardcharges.csv,https://apps.para-hcfs.com/PTT/FinalLinks/SarahBush_V3.aspx,,https://www.sarahbush.org/onlinebillpay/,
140190,,CRAWFORD MEMORIAL HOSPITAL,,,1000 N ALLEN ST PO BOX 151,ROBINSON,IL,62454,6185443131,R,Short Term,GOVERNMENT - COUNTY,OTHER-PROVIDER STATUS CHANGE,,,,,,
140191,,INGALLS MEMORIAL HOSPITAL,UChicago Medicine Ingalls Memorial,University of Chicago Medicine,1 INGALLS DRIVE,HARVEY,IL,60426,7083332300,U,Short Term,GOVERNMENT - CITY,ACTIVE PROVIDER,,,,,,
140192,,LINCOLN WEST HOSPITAL,,,2544 W MONTROSE AVE,CHICAGO,IL,60618,3122672200,U,Short Term,NONPROFIT - CHURCH RELATED,"VOLUNTARY-MERGER, CLOSURE",,,,,,
140193,,HILLSBORO AREA HOSPITAL,,,1200 TREMONT ST,HILLSBORO,IL,62049,2175326111,R,Short Term,FOR PROFIT - CORPORATION,OTHER-PROVIDER STATUS CHANGE,,,,,,
140197,,METHODIST HOSPITAL OF CHICAGO,Thorek Memorial Hospital Andersonville,,5025 N PAULINA STREET,CHICAGO,IL,60640,7732719040,U,Short Term,FOR PROFIT - PARTNERSHIP,ACTIVE PROVIDER,,,,,,
140199,,ST FRANCIS HOSPITAL,,,1215 EAST UNION AVENUE,LITCHFIELD,IL,62056,2173242191,R,Short Term,FOR PROFIT - INDIVIDUAL,"VOLUNTARY-MERGER, CLOSURE",,,,,,
140200,,ELMHURST MEMORIAL HOSPITAL,Elmhurst Hospital,Edward Elmhurst Healthcare,155 EAST BRUSH HILL ROAD,ELMHURST,IL,60126,3312210130,U,Short Term,NONPROFIT - CHURCH RELATED,ACTIVE PROVIDER,,,,,,
140202,,ADVOCATE CONDELL MEDICAL CENTER,Advocate Condell Medical Center,Advocate Aurora Health,801 S MILWAUKEE AVE,LIBERTYVILLE,IL,60048,8473622900,U,Short Term,FOR PROFIT - PARTNERSHIP,ACTIVE PROVIDER,,,,,,
140203,,VALLEY WEST COMMUNITY HOSPITAL,,,11 EAST PLEASANT AVENUE,SANDWICH,IL,60548,8157868484,U,Short Term,FOR PROFIT - CORPORATION,OTHER-PROVIDER STATUS CHANGE,,,,,,
140204,,MOLINE PUBLIC HOSPITAL,,,635 10TH AVE,MOLINE,IL,61265,3097573131,U,Short Term,GOVERNMENT - STATE,"VOLUNTARY-MERGER, CLOSURE",,,,,,
140205,,SWEDISH AMERICAN MED CTR BELVIDERE,,,1625 S STATE ST,BELVIDERE,IL,61008,8155475441,U,Short Term,NONPROFIT - CHURCH RELATED,"VOLUNTARY-MERGER, CLOSURE",,,,,,
140206,,HUMBOLDT PARK HEALTH,Humboldt Park Health,,1044 N FRANCISCO AVE,CHICAGO,IL,60622,7732928200,U,Short Term,FOR PROFIT - PARTNERSHIP,ACTIVE PROVIDER,,,,,,
140207,,LINCOLN PARK HOSPITAL,,,550 W WEBSTER AVE,CHICAGO,IL,60614,7738832000,U,Short Term,FOR PROFIT - PARTNERSHIP,"VOLUNTARY-MERGER, CLOSURE",,,,,,
140208,,ADVOCATE CHRIST HOSPITAL & MEDICAL CENTER,Advocate Christ Medical Center,Advocate Aurora Health,4440 W 95TH STREET,OAK LAWN,IL,60453,7086848000,U,Short Term,FOR PROFIT - INDIVIDUAL,ACTIVE PROVIDER,,,,,,
140209,37-0661223,METHODIST MEDICAL CENTER OF ILLINOIS,Carle Health Methodist Hospital,Unitypoint Health,221 N E GLEN OAK AVE,PEORIA,IL,61636,3096725522,U,Short Term,FOR PROFIT - PARTNERSHIP,ACTIVE PROVIDER,2023-04-26,370661223_carle-health---methodist-hospital_standardcharges.json,https://search.hospitalpriceindex.com/hpi2/machineReadable/UnityPointHealth-MethodistHospital/7950or,,https://www.unitypoint.org/patients-and-visitors/billing-and-financial-information/price-transparency,
140210,,HARRISBURG MEDICAL CENTER,Harrisburg Medical Center,,100 DOCTOR WARREN TUTTLE DR,HARRISBURG,IL,62946,6182537671,R,Short Term,FOR PROFIT - CORPORATION,ACTIVE PROVIDER,,,,,,
140211,36-3484281,NORTHWESTERN MEDICINE DELNOR COMMUNITY HOSPITAL,Northwestern Medicine Delnor Hospital,Northwestern Memorial Medicine,300 RANDALL RD,GENEVA,IL,60134,6302083000,U,Short Term,FOR PROFIT - PARTNERSHIP,ACTIVE PROVIDER,2023-03-01,36-3484281-northwestern-medicine-delnor-hospital-standard-charges.json,https://www.nm.org/-/media/northwestern/resources/patients-and-visitors/billing-and-insurance/chargemaster/36-3484281-northwestern-medicine-delnor-hospital-standard-charges.json,,https://www.nm.org/patients-and-visitors/billing-and-insurance/chargemaster,
140212,,ST CABRINI HOSPITAL,,,811 S LYTLE ST,CHICAGO,IL,60607,3128834300,U,Short Term,FOR PROFIT - INDIVIDUAL,"VOLUNTARY-MERGER, CLOSURE",,,,,,
140213,36-2174832,SILVER CROSS HOSPITAL  AND MEDICAL CENTERS,Silver Cross Hospital,,1900 SILVER CROSS BLVD,NEW LENOX,IL,60451,8153001100,U,Short Term,FOR PROFIT - PARTNERSHIP,ACTIVE PROVIDER,2023-03-31,362174832_silvercrosshospital_standardcharges_033123.csv,https://www.silvercross.org/app/files/public/a0ffb684-af3f-417a-8e56-d82fcba1f0f4/362174832_silvercrosshospital_standardcharges_033123.csv,,https://www.silvercross.org/patient-family/before/price-transparency/,
140215,,U M W OF A UNION HOSPITAL,,,507 W ST LOUIS ST,WEST FRANKFORT,IL,62896,6189322155,R,Short Term,FOR PROFIT - PARTNERSHIP,VOLUNTARY-DISSATISFACTION WITH REIMBURSEMENT,,,,,,
140216,,SAUNDERS HOSPITAL,,,700 W WOODS ST,AVON,IL,61415,3094653171,U,Short Term,FOR PROFIT - CORPORATION,"VOLUNTARY-MERGER, CLOSURE",,,,,,
140217,36-4195126,PRESENCE SAINT JOSEPH HOSPITAL - ELGIN,Ascension Saint Joseph - Elgin,Ascension Healthcare,77 N AIRLITE STREET,ELGIN,IL,60123,8476953200,U,Short Term,FOR PROFIT - INDIVIDUAL,ACTIVE PROVIDER,2022-09-30,364195126_amita-health-saint-joseph-hospital-elgin_standardcharges.xlsx,https://healthcare.ascension.org/-/media/project/ascension/healthcare/price-transparency-files/il/364195126_amita-health-saint-joseph-hospital-elgin_standardcharges.xlsx,,https://healthcare.ascension.org/price-transparency/price-transparency-files,
140218,,MERCER COUNTY HOSPITAL,,,409 NW NINTH AVE,ALEDO,IL,61231,3095825301,U,Short Term,GOVERNMENT - STATE,OTHER-PROVIDER STATUS CHANGE,,,,,,
140219,,UNITED SAMARITANS MED CENTER-LOGAN,,,812 NORTH LOGAN AVE,DANVILLE,IL,61832,2174435201,U,Short Term,FOR PROFIT - CORPORATION,"VOLUNTARY-MERGER, CLOSURE",,,,,,
140220,,GIBSON COMMUNITY HOSPITAL,,,1120 NORTH MELVIN,GIBSON CITY,IL,60936,2177844251,R,Short Term,FOR PROFIT - CORPORATION,OTHER-PROVIDER STATUS CHANGE,,,,,,
140223,,ADVOCATE LUTHERAN GENERAL HOSPITAL,Advocate Lutheran General Hospital,Advocate Aurora Health,1775 DEMPSTER ST,PARK RIDGE,IL,60068,8477232210,U,Short Term,FOR PROFIT - INDIVIDUAL,ACTIVE PROVIDER,,,,,,
140224,36-2235165,PRESENCE SAINT JOSEPH HOSPITAL - CHICAGO,Ascension Saint Joseph -Chicago,Ascension Healthcare,2900 NORTH LAKE SHORE DRIVE,CHICAGO,IL,60657,7736653000,U,Short Term,FOR PROFIT - INDIVIDUAL,ACTIVE PROVIDER,2022-09-30,362235165_amita-health-saint-joseph-hospital-chicago_standardcharges.xlsx,https://healthcare.ascension.org/-/media/project/ascension/healthcare/price-transparency-files/il/362235165_amita-health-saint-joseph-hospital-chicago_standardcharges.xlsx,,https://healthcare.ascension.org/price-transparency/price-transparency-files,
140226,,LAKESIDE COMMUNITY HOSPITAL,,,225 WEST CERMAK RD,CHICAGO,IL,60616,3122254500,U,Short Term,FOR PROFIT - CORPORATION,INVOLUNTARY-FAILURE TO MEET HEALTH/SAFETY REQ,,,,,,
140228,,SWEDISH AMERICAN HOSPITAL,SwedishAmerican Hospital,UW Health (Wisconsin),1401 EAST STATE STREET,ROCKFORD,IL,61104,8159684400,U,Short Term,FOR PROFIT - PARTNERSHIP,ACTIVE PROVIDER,,,,,,
140229,,SAVANNA CITY HOSPITAL,,,1125 N FIFTH ST,SAVANNA,IL,61074,8152737751,R,Short Term,GOVERNMENT - STATE,"VOLUNTARY-MERGER, CLOSURE",,,,,,
140230,,JOHN AND MARY KIRBY HOSPITAL,,,1111 NORTH STATE STREET,MONTICELLO,IL,61856,2177622115,U,Short Term,FOR PROFIT - CORPORATION,OTHER-PROVIDER STATUS CHANGE,,,,,,
140231,,EDWARD HOSPITAL,Edward Hospital - Main Campus,Edward Elmhurst Healthcare,801 SOUTH WASHINGTON,NAPERVILLE,IL,60540,6305273000,U,Short Term,FOR PROFIT - PARTNERSHIP,ACTIVE PROVIDER,,,,,,
140232,,DOUGLAS COUNTY-JARMAN MEM HOSPITAL,,,704 NORTH MAIN ST,TUSCOLA,IL,61953,2172533361,R,Short Term,GOVERNMENT - STATE,"VOLUNTARY-MERGER, CLOSURE",,,,,,
140233,,SAINT ANTHONY MEDICAL CENTER,OSF Saint Anthony Medical Center,OSF Healthcare System,5666 EAST STATE STREET,ROCKFORD,IL,61108,8152262000,U,Short Term,FOR PROFIT - INDIVIDUAL,ACTIVE PROVIDER,,,,,,
140234,,ST MARGARET'S HEALTH - PERU,,,925 WEST ST,PERU,IL,61354,8152233300,R,Short Term,FOR PROFIT - INDIVIDUAL,ACTIVE PROVIDER,,,,,,
140235,,WHITE HALL HOSPITAL,,,407 N MAIN ST,WHITE HALL,IL,62092,2173742121,R,Short Term,FOR PROFIT - CORPORATION,VOLUNTARY-OTHER REASON FOR WITHDRAWAL,,,,,,
140236,,CENTRAL COMMUNITY HOSPITAL,,,335 E 5TH AVENUE,CLIFTON,IL,60927,8156942392,R,Short Term,FOR PROFIT - CORPORATION,"VOLUNTARY-MERGER, CLOSURE",,,,,,
140239,,MERCYHEALTH HOSPITAL ROCKTON AVENUE,Javon Bea Hospital - Rockton,Mercy Health System,2400 NORTH ROCKTON AVENUE,ROCKFORD,IL,61103,8159686861,U,Short Term,FOR PROFIT - PARTNERSHIP,ACTIVE PROVIDER,,,,,,
140240,,WESTLAKE HOSPITAL,,,1225 LAKE ST,MELROSE PARK,IL,60160,7089384000,U,Short Term,FOR PROFIT - CORPORATION,"VOLUNTARY-MERGER, CLOSURE",,,,,,
140241,,LA HARPE HOSPITAL ASSOCIATION,,,B ST & ARCHER AVE,LA HARPE,IL,61450,2176593011,R,Short Term,FOR PROFIT - CORPORATION,"VOLUNTARY-MERGER, CLOSURE",,,,,,
140242,36-2513909,NORTHWESTERN MEDICINE CENTRAL DUPAGE HOSPITAL,Northwestern Medicine Central DuPage Hospital,Northwestern Memorial Medicine,25 NORTH WINFIELD ROAD,WINFIELD,IL,60190,6306821600,U,Short Term,FOR PROFIT - PARTNERSHIP,ACTIVE PROVIDER,2023-03-01,36-2513909-northwestern-medicine-central-dupage-hospital-standard-charges.json,https://www.nm.org/-/media/northwestern/resources/patients-and-visitors/billing-and-insurance/chargemaster/36-2513909-northwestern-medicine-central-dupage-hospital-standard-charges.json,,https://www.nm.org/patients-and-visitors/billing-and-insurance/chargemaster,
140243,,CARLE PAVILION INC,,,809 W CHURCH ST,CHAMPAIGN,IL,61820,2173517200,U,Short Term,FOR PROFIT - CORPORATION,VOLUNTARY-OTHER REASON FOR WITHDRAWAL,,,,,,
140245,,MEMORIAL HOSPITAL,,,1900 STATE ST,CHESTER,IL,62233,6188264581,R,Short Term,GOVERNMENT - COUNTY,OTHER-PROVIDER STATUS CHANGE,,,,,,
140246,,FERRELL HOSPITAL INC,,,1201 PINE STREET,ELDORADO,IL,62930,6182733361,R,Short Term,NONPROFIT - CHURCH RELATED,OTHER-PROVIDER STATUS CHANGE,,,,,,
140247,,PEARCE HOSPITAL FOUNDATION INC,,,1901 ORGAN STREET,ELDORADO,IL,62930,,R,Short Term,FOR PROFIT - CORPORATION,"VOLUNTARY-MERGER, CLOSURE",,,,,,
140248,,PROVIDENT HOSPITAL TRAINING SCHOOL,,,500 EAST 51ST STREET,CHICAGO,IL,60615,3122855300,U,Short Term,FOR PROFIT - CORPORATION,INVOLUNTARY-FAILURE TO MEET HEALTH/SAFETY REQ,,,,,,
140249,,ELGIN STATE HOSP-MED & SURG DIV,,,750 S STATE ST,ELGIN,IL,60120,3127421040,U,Short Term,NONPROFIT - OTHER,VOLUNTARY-OTHER REASON FOR WITHDRAWAL,,,,,,
140250,,ADVOCATE SOUTH SUBURBAN HOSPITAL,Advocate South Suburban Hospital,,17800 S KEDZIE AVE,HAZEL CREST,IL,60429,7087998000,U,Short Term,FOR PROFIT - INDIVIDUAL,"VOLUNTARY-MERGER, CLOSURE",,,,,,
140251,,COMMUNITY FIRST MEDICAL CENTER,Community First Medical Center,,5645 W ADDISON STREET,CHICAGO,IL,60634,7732827000,U,Short Term,NONPROFIT - CHURCH RELATED,ACTIVE PROVIDER,,,,,,
140252,,NORTHWEST COMMUNITY HOSPITAL 1,Northwest Community Hospital,NorthShore University Health System,800 W CENTRAL ROAD,ARLINGTON HEIGHTS,IL,60005,8476181000,U,Short Term,FOR PROFIT - PARTNERSHIP,ACTIVE PROVIDER,,,,,,
140253,,DOCTORS HOSP HYDE PK,,,5800 STONY ISLAND AVE,CHICAGO,IL,60637,7736439200,U,Short Term,NONPROFIT - CHURCH RELATED,"VOLUNTARY-MERGER, CLOSURE",,,,,,
140258,36-2596381,ALEXIAN BROTHERS MEDICAL CENTER 1,Ascension Alexian Brothers,Ascension Healthcare,800 W BIESTERFIELD RD,ELK GROVE VILLAGE,IL,60007,8474375500,U,Short Term,FOR PROFIT - PARTNERSHIP,ACTIVE PROVIDER,2022-09-30,362596381_amita-health-alexian-brothers-medical-center-elk-grove-village-and-amita-health-rehabilitation-hospital-elk-grove-village_standardcharges.xlsx,https://healthcare.ascension.org/-/media/project/ascension/healthcare/price-transparency-files/il/362596381_amita-health-alexian-brothers-medical-center-elk-grove-village-and-amita-health-rehabilitation-hospital-elk-grove-village_standardcharges.xlsx,,https://healthcare.ascension.org/price-transparency/price-transparency-files,
140261,,MARY THOMPSON HOSPITAL,,,140 N ASHLAND AVENUE,CHICAGO,IL,60607,3126667373,U,Short Term,FOR PROFIT - CORPORATION,"VOLUNTARY-MERGER, CLOSURE",,,,,,
140270,,CHICAGO-READ MENTAL HEALTH CENTER,,,4200 N OAK PARK AVE,CHICAGO,IL,60634,7944010,U,Short Term,NONPROFIT - OTHER,"VOLUNTARY-MERGER, CLOSURE",,,,,,
140271,,PANA COMMUNITY HOSPITAL,,,101 E NINTH STREET,PANA,IL,62557,2175622131,R,Short Term,FOR PROFIT - CORPORATION,OTHER-PROVIDER STATUS CHANGE,,,,,,
140273,,ILLINOIS VETERANS HOME,,,1707 N TWELTH STREET,QUINCY,IL,62301,2172228641,R,Short Term,FOR PROFIT - CORPORATION,"VOLUNTARY-MERGER, CLOSURE",,,,,,
140275,,GENESIS HEALTH SYSTEM,Genesis Medical Center Silvis,Genesis Health System,801 ILLINI DR,SILVIS,IL,61282,3092814000,U,Short Term,GOVERNMENT - STATE,ACTIVE PROVIDER,,,,,,
140276,,LOYOLA UNIVERSITY MEDICAL CENTER,Loyola University Medical Center,Trinity Health,2160 S 1ST AVENUE,MAYWOOD,IL,60153,7082169000,U,Short Term,FOR PROFIT - PARTNERSHIP,ACTIVE PROVIDER,,,,,,
140280,36-2739299,TRINITY ROCK ISLAND,Trinity Rock Island,Unitypoint Health,2701 17TH ST,ROCK ISLAND,IL,61201,3097795000,U,Short Term,FOR PROFIT - CORPORATION,ACTIVE PROVIDER,2023-04-26,362739299_unitypoint-health---trinity-rock-island_standardcharges.json,https://search.hospitalpriceindex.com/hpi2/machineReadable/UnityPointHealth-TrinityRockIsland/7959or,,https://www.unitypoint.org/patients-and-visitors/billing-and-financial-information/price-transparency,
140281,37-0960170,NORTHWESTERN MEMORIAL HOSPITAL,Northwestern Memorial Hospital,Northwestern Memorial Medicine,251 E HURON ST,CHICAGO,IL,60611,3129262000,U,Short Term,FOR PROFIT - PARTNERSHIP,ACTIVE PROVIDER,2023-03-01,37-0960170-northwestern-memorial-hospital-standard-charges.json,https://www.nm.org/-/media/northwestern/resources/patients-and-visitors/billing-and-insurance/chargemaster/37-0960170-northwestern-memorial-hospital-standard-charges.json,,https://www.nm.org/patients-and-visitors/billing-and-insurance/chargemaster,
140283,,CHILDRENS MEMORIAL HOSPITAL,,,2300 CHILDRENS PLAZA,CHICAGO,IL,60614,3128804000,U,Short Term,FOR PROFIT - CORPORATION,OTHER-PROVIDER STATUS CHANGE,,,,,,
140285,,DOCTORS HOSPITAL,,,5230 SOUTH 6TH STREET,SPRINGFIELD,IL,62794,2175297151,U,Short Term,NONPROFIT - CHURCH RELATED,"VOLUNTARY-MERGER, CLOSURE",,,,,,
140286,23-7087041,NORTHWESTERN MEDICINE KISHWAUKEE HOSPITAL,Northwestern Medicine Kishwaukee Hospital,Northwestern Memorial Medicine,ONE KISH HOSPITAL DRIVE,DEKALB,IL,60115,8157561521,U,Short Term,FOR PROFIT - PARTNERSHIP,ACTIVE PROVIDER,2023-03-01,23-7087041-northwestern-medicine-kishwaukee-hospital-standard-charges.json,https://www.nm.org/-/media/northwestern/resources/patients-and-visitors/billing-and-insurance/chargemaster/23-7087041-northwestern-medicine-kishwaukee-hospital-standard-charges.json,,https://www.nm.org/patients-and-visitors/billing-and-insurance/chargemaster,
140288,,ADVOCATE GOOD SAMARITAN HOSPITAL,Advocate Good Samaritan Hospital,Advocate Aurora Health,3815 HIGHLAND AVENUE,DOWNERS GROVE,IL,60515,6302755900,U,Short Term,FOR PROFIT - PARTNERSHIP,ACTIVE PROVIDER,,,,,,
140289,,ANDERSON HOSPITAL,Anderson Hospital,,6800 STATE ROUTE 162,MARYVILLE,IL,62062,6182885711,U,Short Term,FOR PROFIT - PARTNERSHIP,ACTIVE PROVIDER,,,,,,
140290,36-4251846,ST ALEXIUS MEDICAL CENTER,Ascension Saint Alexius in Hoffman Estates,Ascension Healthcare,1555 N BARRINGTON RD,HOFFMAN ESTATES,IL,60169,8478432000,U,Short Term,FOR PROFIT - INDIVIDUAL,ACTIVE PROVIDER,2022-09-30,364251846_amita-health-st-alexius-medical-center-hoffman-estates-and-amita-health-women-and-childrens-hospital-hoffman-estates_standardcharges.xlsx,https://healthcare.ascension.org/-/media/project/ascension/healthcare/price-transparency-files/il/364251846_amita-health-st-alexius-medical-center-hoffman-estates-and-amita-health-women-and-childrens-hospital-hoffman-estates_standardcharges.xlsx,,https://healthcare.ascension.org/price-transparency/price-transparency-files,
140291,,ADVOCATE GOOD SHEPHERD HOSPITAL,Advocate Good Shepherd Hospital,Advocate Aurora Health,450 WEST HIGHWAY 22,BARRINGTON,IL,60010,8473819600,U,Short Term,FOR PROFIT - INDIVIDUAL,ACTIVE PROVIDER,,,,,,
140292,,ADVENTHEALTH GLENOAKS,AdventHealth GlenOaks,AdventHealth,701 WINTHROP AVENUE,GLENDALE HEIGHTS,IL,60139,6305458000,U,Short Term,FOR PROFIT - CORPORATION,ACTIVE PROVIDER,,,,,,
140293,,GATEWAY COMMUNITY HOSPITAL,,,1509 MARTIN LUTHER KING DR,EAST ST LOUIS,IL,62201,6188747076,U,Short Term,FOR PROFIT - CORPORATION,"VOLUNTARY-MERGER, CLOSURE",,,,,,
140294,,CROSSROADS COMMUNITY HOSPITAL,Crossroads Community Hospital,,8 DOCTORS PARK RD,MOUNT VERNON,IL,62864,6182445500,R,Short Term,NONPROFIT - CHURCH RELATED,ACTIVE PROVIDER,,,,,,
140295,,LEYDEN COMMUNITY HOSPITAL,,,365 EAST NORTH AVENUE,NORTHLAKE,IL,60164,3123458100,U,Short Term,FOR PROFIT - INDIVIDUAL,OTHER-PROVIDER STATUS CHANGE,,,,,,
140296,,MANTENO MENTAL HEALTH CENTER,,,100 BARNARD ROAD,MANTENO,IL,60950,8154683451,U,Short Term,NONPROFIT - OTHER,VOLUNTARY-OTHER REASON FOR WITHDRAWAL,,,,,,
140297,,RM HEALTH PROVIDERS LIMITED PARTNERSHP,,,5601 S COUNTY LINE RD,HINSDALE,IL,60521,7083235800,U,Short Term,GOVERNMENT - COUNTY,OTHER-PROVIDER STATUS CHANGE,,,,,,
140298,,OAK FOREST HOSPITAL,,,15900 SOUTH CICERO,OAK FOREST,IL,60452,3126877200,U,Short Term,GOVERNMENT - STATE,OTHER-PROVIDER STATUS CHANGE,,,,,,
140299,,PARKSIDE LUTHERAN HOSPITAL,,,1700 LUTHER LANE,PARK RIDGE,IL,60068,3126966050,U,Short Term,FOR PROFIT - INDIVIDUAL,"VOLUNTARY-MERGER, CLOSURE",,,,,,
140300,,PROVIDENT HOSPITAL OF CHICAGO,Provident Hospital of Cook County,,500 E 51ST ST,CHICAGO,IL,60615,3125722000,U,Short Term,GOVERNMENT - STATE,ACTIVE PROVIDER,,,,,,
140301,,OAK FOREST HOSPITAL,,,159TH & CICERO AVENUE,OAK FOREST,IL,60452,7086877200,U,Short Term,GOVERNMENT - STATE,"VOLUNTARY-MERGER, CLOSURE",,,,,,
140302,,VAN MATRE HEALTHSOUTH REHAB HOSPITAL,,,950 S MULFORD ROAD,ROCKFORD,IL,61108,8153818500,U,Short Term,NONPROFIT - CHURCH RELATED,OTHER-PROVIDER STATUS CHANGE,,,,,,
140303,,THSC LLC NEUROLOGIC AND ORTHOPEDIC INST OF CHGO,,,4501 N WINCHESTER AVENUE,CHICAGO,IL,60640,7732500000,U,Short Term,FOR PROFIT - PARTNERSHIP,"VOLUNTARY-MERGER, CLOSURE",,,,,,
140304,,ADVENTHEALTH BOLINGBROOK,UChicago Medicine AdventHealth Bolingbrook,AdventHealth,500 REMINGTON BOULEVARD,BOLINGBROOK,IL,60440,6303125000,U,Short Term,FOR PROFIT - PARTNERSHIP,ACTIVE PROVIDER,,,,,,
140305,,GREATER PEORIA SPECIALTY HOSPITAL,,,500 W ROMEO B GARRETT AVENUE,PEORIA,IL,61605,3096801500,U,Short Term,NONPROFIT - CHURCH RELATED,OTHER-PROVIDER STATUS CHANGE,,,,,,
140306,,"THC - CHICAGO, INC D/B/A KINDRED HOSP SPRINGFIELD",,,701 NORTH WALNUT STREET,SPRINGFIELD,IL,62702,2175281217,U,Short Term,NONPROFIT - CHURCH RELATED,OTHER-PROVIDER STATUS CHANGE,,,,,,
140307,37-0635502,MEMORIAL HOSPITAL EAST,Memorial Hospital East,,1404 CROSS STREET,SHILOH,IL,62269,6186071000,U,Short Term,FOR PROFIT - PARTNERSHIP,"VOLUNTARY-MERGER, CLOSURE",2023-04-28,370635502_MemorialHospital_standardcharges.json,https://www.bjc.org/Portals/0/PDF/rates/370635502_MemorialHospital_standardcharges.json,,https://www.bjc.org/For-Patients-Visitors/Financial-Assistance-Billing-Resources/BJC-Hospital-Rates,
141300,,THOMAS H BOYD MEMORIAL HOSPITAL,Thomas H. Boyd Memorial Hospital,,800 SCHOOL ST,CARROLLTON,IL,62016,2179426946,R,Critical Access Hospitals,GOVERNMENT - STATE,ACTIVE PROVIDER,,,,,,
141301,,KIRBY MEDICAL CENTER,Kirby Medical Center,,1000 MEDICAL CENTER DRIVE,MONTICELLO,IL,61856,2177622115,U,Critical Access Hospitals,FOR PROFIT - PARTNERSHIP,ACTIVE PROVIDER,,,,,,
141302,,MIDWEST MEDICAL CENTER,Midwest Medical Center,,1 MEDICAL CENTER DRIVE,GALENA,IL,61036,8157771340,R,Critical Access Hospitals,FOR PROFIT - PARTNERSHIP,ACTIVE PROVIDER,,,,,,
141303,,WARNER HOSPITAL AND HEALTH SERVICES,Warner Hospital and Healthcare Services,,422 W WHITE ST,CLINTON,IL,61727,2179359571,R,Critical Access Hospitals,GOVERNMENT - STATE,ACTIVE PROVIDER,,,,,,
141304,,"GENESIS MEDICAL CENTER, ALEDO","Genesis Medical Center, Aledo",,409 NW 9TH AVENUE,ALEDO,IL,61231,3095829100,U,Critical Access Hospitals,FOR PROFIT - PARTNERSHIP,ACTIVE PROVIDER,,,,,,
141305,,MEMORIAL HOSPITAL,Unity Point Health Memorial Hospital,Unitypoint Health,1454 N COUNTY ROAD 2050 E,CARTHAGE,IL,62321,2173578500,R,Critical Access Hospitals,FOR PROFIT - PARTNERSHIP,ACTIVE PROVIDER,,,,,,
141306,,COMMUNITY HOSPITAL OF STAUNTON,Community Hospital of Staunton,,400 N CALDWELL ST,STAUNTON,IL,62088,6186352200,U,Critical Access Hospitals,FOR PROFIT - PARTNERSHIP,ACTIVE PROVIDER,,,,,,
141307,,PINCKNEYVILLE COMMUNITY HOSPITAL,Pinckneyville Community Hospital,,5383 STATE ROUTE 154,PINCKNEYVILLE,IL,62274,6183572187,R,Critical Access Hospitals,GOVERNMENT - COUNTY,ACTIVE PROVIDER,,,,,,
141308,,WASHINGTON COUNTY HOSPITAL,Washington County Hospital,,705 S GRAND AVE,NASHVILLE,IL,62263,6183278236,R,Critical Access Hospitals,GOVERNMENT - COUNTY,ACTIVE PROVIDER,,,,,,
141309,,CARLE EUREKA HOSPITAL,Carle Eureka Hospital,Carle Health,101 S MAJOR ST,EUREKA,IL,61530,3094672371,U,Critical Access Hospitals,FOR PROFIT - PARTNERSHIP,ACTIVE PROVIDER,,,,,,
141310,,OSF SAINT PAUL MEDICAL CENTER,OSF Saint Paul Medical Center,OSF Healthcare System,1401 E 12TH STREET,MENDOTA,IL,61342,8155397461,R,Critical Access Hospitals,FOR PROFIT - INDIVIDUAL,ACTIVE PROVIDER,,,,,,
141311,,FAIRFIELD MEMORIAL HOSPITAL 1,Fairfield Memorial Hospital,,303 N W 11TH STREET,FAIRFIELD,IL,62837,6188422611,R,Critical Access Hospitals,FOR PROFIT - PARTNERSHIP,ACTIVE PROVIDER,,,,,,
141312,36-2548549,ROCHELLE COMMUNITY HOSPITAL,Rochelle Community Hospital,,900 N 2ND ST,ROCHELLE,IL,61068,8155622181,R,Critical Access Hospitals,FOR PROFIT - PARTNERSHIP,ACTIVE PROVIDER,2022-07-28,362548549_rochelle-community-hospital_standardcharges.csv,https://apps.para-hcfs.com/PTT/FinalLinks/Rochelle_V3.aspx,,https://www.rochellehospital.com/patients-and-visitors/billing-insurance/price-estimator/,
141313,,MASON DISTRICT HOSPITAL,Mason District Hospital,,"615 NORTH PROMENADE STREET,P O BOX 530",HAVANA,IL,62644,3095434431,R,Critical Access Hospitals,GOVERNMENT - COUNTY,ACTIVE PROVIDER,,,,,,
141314,,CORNERSTONE HEALTHCARE OF ILLINOIS,,,400 PLUM STREET,CARMI,IL,62821,6183824171,R,Critical Access Hospitals,GOVERNMENT - STATE,"VOLUNTARY-MERGER, CLOSURE",,,,,,
141315,,ILLINI COMMUNITY HOSPITAL,Illini Community Hospital,Blessing Health System,640 W WASHINGTON,PITTSFIELD,IL,62363,2172852113,R,Critical Access Hospitals,FOR PROFIT - PARTNERSHIP,ACTIVE PROVIDER,,,,,,
141316,,HOOPESTON COMMUNITY MEMORIAL HOSPITAL,Carle Hoopeston Regional Health Center,Carle Health,701 EAST ORANGE STREET,HOOPESTON,IL,60942,2172835531,U,Critical Access Hospitals,FOR PROFIT - PARTNERSHIP,ACTIVE PROVIDER,,,,,,
141317,,GIBSON COMMUNITY HOSPITAL,Gibson Area Hospital & Health Services,,1120 N MELVIN STREET,GIBSON CITY,IL,60936,2177844251,R,Critical Access Hospitals,FOR PROFIT - PARTNERSHIP,ACTIVE PROVIDER,,,,,,
141318,,OSF HOLY FAMILY MEDICAL CENTER,OSF Holy Family Medical Center,OSF Healthcare System,1000 W HARLEM AVENUE,MONMOUTH,IL,61462,3097343141,R,Critical Access Hospitals,FOR PROFIT - INDIVIDUAL,ACTIVE PROVIDER,,,,,,
141319,,HAMMOND HENRY HOSPITAL,Hammond-Henry Hospital,,600 N COLLEGE AVENUE,GENESEO,IL,61254,3099446431,U,Critical Access Hospitals,GOVERNMENT - COUNTY,ACTIVE PROVIDER,,,,,,
141320,,PARIS COMMUNITY HOSPITAL,Paris Community Hospital,,721 E COURT STREET,PARIS,IL,61944,2174654141,R,Critical Access Hospitals,FOR PROFIT - PARTNERSHIP,ACTIVE PROVIDER,,,,,,
141321,,FRANKLIN HOSPITAL,Franklin Hospital,,201 BAILEY LANE,BENTON,IL,62812,6184393161,R,Critical Access Hospitals,GOVERNMENT - COUNTY,ACTIVE PROVIDER,,,,,,
141322,,ABRAHAM LINCOLN MEMORIAL HOSPITAL,Lincoln Memorial Hospital,Memorial Health System,200 STAHLHUT DRIVE,LINCOLN,IL,62656,2177322161,R,Critical Access Hospitals,FOR PROFIT - PARTNERSHIP,ACTIVE PROVIDER,,,,,,
141323,,MASSAC MEMORIAL HOSPITAL,Massac Memorial Hospital,,"28 CHICK STREET, PO BOX 850",METROPOLIS,IL,62960,6185242176,R,Critical Access Hospitals,NONPROFIT - CHURCH RELATED,ACTIVE PROVIDER,,,,,,
141324,,FERRELL HOSPITAL COMMUNITY FOUNDATIONS,Ferrell Hospital,,1201 PINE STREET,ELDORADO,IL,62930,6182733361,R,Critical Access Hospitals,FOR PROFIT - PARTNERSHIP,ACTIVE PROVIDER,,,,,,
141325,,OSF SAINT LUKE MEDICAL CENTER,OSF Saint Luke Medical Center,OSF Healthcare System,1051 WEST SOUTH STREET,KEWANEE,IL,61443,3098533361,U,Critical Access Hospitals,FOR PROFIT - PARTNERSHIP,ACTIVE PROVIDER,,,,,,
141326,,HAMILTON MEMORIAL HOSPITAL,Hamilton Memorial Hospital District,,611 S MARSHALL AVENUE,MCLEANSBORO,IL,62859,6186432361,R,Critical Access Hospitals,GOVERNMENT - COUNTY,ACTIVE PROVIDER,,,,,,
141327,,WABASH GENERAL HOSPITAL 1,Wabash General Hospital,,1418 COLLEGE DRIVE,MOUNT CARMEL,IL,62863,6182628621,R,Critical Access Hospitals,GOVERNMENT - COUNTY,ACTIVE PROVIDER,,,,,,
141328,,HARDIN COUNTY GENERAL HOSPITAL,Hardin County General Hospital,,FERRELL ROAD,ROSICLARE,IL,62982,6182856634,R,Critical Access Hospitals,FOR PROFIT - PARTNERSHIP,ACTIVE PROVIDER,,,,,,
141329,,MORRISON COMMUNITY HOSPITAL,Morrison Community Hospital,,303 N JACKSON STREET,MORRISON,IL,61270,8157724003,R,Critical Access Hospitals,GOVERNMENT - COUNTY,ACTIVE PROVIDER,,,,,,
141330,,HOPEDALE HOSPITAL,Hopedale Medical Complex,,107 TREMONT STREET,HOPEDALE,IL,61747,3094494296,U,Critical Access Hospitals,FOR PROFIT - PARTNERSHIP,ACTIVE PROVIDER,,,,,,
141331,,MARSHALL BROWNING HOSPITAL,Marshall Browning Hospital,,900 NORTH WASHINGTON STREET,DU QUOIN,IL,62832,6185422146,R,Critical Access Hospitals,FOR PROFIT - PARTNERSHIP,ACTIVE PROVIDER,,,,,,
141332,37-0661208,HILLSBORO AREA HOSPITAL,Hillsboro Area Hospital,,1200 E TREMONT STREET,HILLSBORO,IL,62049,2175326111,R,Critical Access Hospitals,FOR PROFIT - PARTNERSHIP,ACTIVE PROVIDER,2022-07-19,370661208_hillsboro-area-hospital_standardcharges.csv,https://apps.para-hcfs.com/PTT/FinalLinks/Hillsboro_V2.aspx,,https://www.hillsboroareahospital.org/patient-billing/hospital-standard-charges/,
141333,,SARAH D CULBERTSON MEMORIAL HOSPITAL,Sarah D. Culbertson Memorial Hospital,,238 SOUTH CONGRESS STREET,RUSHVILLE,IL,62681,2173224321,R,Critical Access Hospitals,GOVERNMENT - COUNTY,ACTIVE PROVIDER,,,,,,
141334,,ST JOSEPH MEMORIAL HOSPITAL,SIH Saint Joseph Memorial Hospital,Southern Illinois Healthcare,2 SOUTH HOSPITAL DRIVE,MURPHYSBORO,IL,62966,6186843156,U,Critical Access Hospitals,FOR PROFIT - PARTNERSHIP,ACTIVE PROVIDER,,,,,,
141335,,MERCY HARVARD HOSPITAL,Mercyhealth Hospital and Medical Center-Harvard,Mercy Health System,901 S GRANT STREET,HARVARD,IL,60033,8159435431,U,Critical Access Hospitals,FOR PROFIT - PARTNERSHIP,ACTIVE PROVIDER,,,,,,
141336,,ST JOSEPH'S HOSPITAL,HSHS Saint Joseph's Hospital Highland,Hospital Sisters Health System,12866 TROXLER AVENUE,HIGHLAND,IL,62249,6186512600,U,Critical Access Hospitals,FOR PROFIT - INDIVIDUAL,ACTIVE PROVIDER,,,,,,
141337,,OSF SAINT CLARE MEDICAL CENTER,OSF Saint Clare Medical Center,OSF Healthcare System,530 PARK AVENUE EAST,PRINCETON,IL,61356,8158752811,R,Critical Access Hospitals,GOVERNMENT - STATE,ACTIVE PROVIDER,,,,,,
141338,,MEMORIAL HOSPITAL,Memorial Hospital,,1900 STATE ST,CHESTER,IL,62233,6188264581,R,Critical Access Hospitals,GOVERNMENT - COUNTY,ACTIVE PROVIDER,,,,,,
141339,,TAYLORVILLE MEMORIAL HOSPITAL,Taylorville Memorial Hospital,Memorial Health System,201 EAST PLEASANT STREET,TAYLORVILLE,IL,62568,2178243331,R,Critical Access Hospitals,FOR PROFIT - PARTNERSHIP,ACTIVE PROVIDER,,,,,,
141340,36-4244337,NORTHWESTERN MEDICINE VALLEY WEST HOSPITAL,Northwestern Medicine Valley West Hospital,Northwestern Memorial Medicine,1301 NORTH MAIN STREET,SANDWICH,IL,60548,8157868484,U,Critical Access Hospitals,FOR PROFIT - PARTNERSHIP,ACTIVE PROVIDER,2023-03-01,36-4244337-northwestern-medicine-valley-west-hospital-standard-charges.json,https://www.nm.org/-/media/northwestern/resources/patients-and-visitors/billing-and-insurance/chargemaster/36-4244337-northwestern-medicine-valley-west-hospital-standard-charges.json,,https://www.nm.org/patients-and-visitors/billing-and-insurance/chargemaster,
141341,,PANA COMMUNITY HOSPITAL,Pana Community Hospital,,101 E NINTH STREET,PANA,IL,62557,2175622131,R,Critical Access Hospitals,FOR PROFIT - PARTNERSHIP,ACTIVE PROVIDER,,,,,,
141342,,UNION COUNTY HOSPITAL,Union County Hospital,,517 NORTH MAIN STREET,ANNA,IL,62906,6188334511,R,Critical Access Hospitals,NONPROFIT - CHURCH RELATED,ACTIVE PROVIDER,,,,,,
141343,,CRAWFORD MEMORIAL HOSPITAL,Crawford Memorial Hospital,,1000 NORTH ALLEN STREET,ROBINSON,IL,62454,6185443131,R,Critical Access Hospitals,GOVERNMENT - COUNTY,ACTIVE PROVIDER,,,,,,
141344,,LAWRENCE COUNTY MEMORIAL HOSPITAL,Lawrence County Memorial Hospital,,2200 STATE ST,LAWRENCEVILLE,IL,62439,6189431000,R,Critical Access Hospitals,FOR PROFIT - PARTNERSHIP,ACTIVE PROVIDER,,,,,,
141345,,SALEM TOWNSHIP HOSPITAL,Salem Township Hospital,,1201 RICKER DRIVE,SALEM,IL,62881,6185483194,R,Critical Access Hospitals,GOVERNMENT - STATE,ACTIVE PROVIDER,,,,,,
141346,,FAYETTE COUNTY HOSPITAL,Sarah Bush Lincoln Fayette County Hospital and Long Term Care,,7TH AND TAYLOR,VANDALIA,IL,62471,6182831231,R,Critical Access Hospitals,FOR PROFIT - CORPORATION,ACTIVE PROVIDER,,,,,,
141347,,CARLINVILLE AREA HOSPITAL,Carlinville Area Hospital,,20733 N BROAD STREET,CARLINVILLE,IL,62626,2178543141,U,Critical Access Hospitals,FOR PROFIT - PARTNERSHIP,ACTIVE PROVIDER,,,,,,
141348,,RED BUD REGIONAL HOSPITAL,Red Bud Regional Hospital,,325 SPRING STREET,RED BUD,IL,62278,6182823831,R,Critical Access Hospitals,NONPROFIT - CHURCH RELATED,ACTIVE PROVIDER,,,,,,
141349,,SPARTA COMMUNITY HOSPITAL,Sparta Community Hospital,,818 E BROADWAY,SPARTA,IL,62286,6184432177,R,Critical Access Hospitals,GOVERNMENT - COUNTY,ACTIVE PROVIDER,,,,,,
141350,,ST FRANCIS HOSPITAL,HSHS Saint Francis Hospital,Hospital Sisters Health System,1215 FRANCISCAN DR,LITCHFIELD,IL,62056,2173242191,R,Critical Access Hospitals,FOR PROFIT - INDIVIDUAL,ACTIVE PROVIDER,,,,,,
141351,,CLAY COUNTY HOSPITAL,Clay County Hospital,SSM Health,911 STACY BURK DR,FLORA,IL,62839,6186622131,R,Critical Access Hospitals,GOVERNMENT - STATE,ACTIVE PROVIDER,,,,,,
141352,,JACKSONVILLE MEMORIAL HOSPITAL,Jacksonville Memorial Hospital,,1600 W WALNUT ST,JACKSONVILLE,IL,62650,2172459551,R,Critical Access Hospitals,FOR PROFIT - PARTNERSHIP,ACTIVE PROVIDER,,,,,,
142004,,MARIANJOY REHABILITATION HOSPITAL,,,26 WEST 171 ROOSEVELT ROAD,WHEATON,IL,60189,3126537600,U,Long Term,FOR PROFIT - INDIVIDUAL,VOLUNTARY-OTHER REASON FOR WITHDRAWAL,,,,,,
142006,,KINDRED HOSPITAL - SYCAMORE,Kindred Hospital Sycamore,,225 EDWARD STREET,SYCAMORE,IL,60178,8158952144,U,Long Term,NONPROFIT - CHURCH RELATED,ACTIVE PROVIDER,,,,,,
142007,,OAK FOREST HOSPITAL,,,159TH & CICERO AVE,OAK FOREST,IL,60452,7086332000,U,Long Term,GOVERNMENT - STATE,OTHER-PROVIDER STATUS CHANGE,,,,,,
142008,,KINDRED HOSPITAL - CHICAGO,Kindred Hospital Chicago - Northlake,,365 E NORTH AVE,NORTHLAKE,IL,60164,7732672620,U,Long Term,NONPROFIT - CHURCH RELATED,ACTIVE PROVIDER,,,,,,
142009,,KINDRED - CHICAGO - LAKESHORE,Kindred Hospital Chicago Lakeshore,,6130 NORTH SHERIDAN ROAD,CHICAGO,IL,60660,7733811222,U,Long Term,NONPROFIT - CHURCH RELATED,ACTIVE PROVIDER,,,,,,
142010,,RML HEALTH PROVIDERS LIMITED PARTNERSHIP,RML Specialty Hospital Hinsdale,,5601 S COUNTY LINE RD,HINSDALE,IL,60521,6302864123,U,Long Term,FOR PROFIT - PARTNERSHIP,ACTIVE PROVIDER,,,,,,
142011,36-2235165,PRESENCE HOLY FAMILY MEDICAL CENTER,Ascension Holy Family,,100 NORTH RIVER ROAD,DES PLAINES,IL,60016,8478133176,U,Long Term,FOR PROFIT - PARTNERSHIP,ACTIVE PROVIDER,2022-09-30,362235165_amita-health-holy-family-medical-center-des-plaines_standardcharges.xlsx,https://healthcare.ascension.org/-/media/project/ascension/healthcare/price-transparency-files/il/362235165_amita-health-holy-family-medical-center-des-plaines_standardcharges.xlsx,,https://healthcare.ascension.org/price-transparency/price-transparency-files,
142012,,ADVOCATE BETHANY HOSPITAL,RML Specialty Hospital Chicago,,3435 WEST VAN BUREN,CHICAGO,IL,60624,7732653588,U,Long Term,FOR PROFIT - INDIVIDUAL,"VOLUNTARY-MERGER, CLOSURE",,,,,,
142013,,GREATER PEORIA SPECIALTY HOSPITAL,OSF HealthCare Transitional Care Hospital,,500 W ROMEO B GARRETT AVENUE,PEORIA,IL,61605,3096801500,U,Long Term,FOR PROFIT - PARTNERSHIP,ACTIVE PROVIDER,,,,,,
142014,,VIBRA HOSPITAL OF SPRINGFIELD,,,701 N WALNUT,SPRINGFIELD,IL,62702,2175281217,U,Long Term,NONPROFIT - CHURCH RELATED,"VOLUNTARY-MERGER, CLOSURE",,,,,,
143025,,SCHWAB REHABILITATION HOSPITAL,Schwab Rehabilitation Hospital,,1401 S CALIFORNIA AVENUE,CHICAGO,IL,60608,7735222010,U,Rehabilitation,FOR PROFIT - CORPORATION,ACTIVE PROVIDER,,,,,,
143026,,SHIRLEY RYAN ABILITYLAB,Shirley Ryan AbilityLab,,355 E ERIE ST,CHICAGO,IL,60611,3122383305,U,Rehabilitation,FOR PROFIT - PARTNERSHIP,ACTIVE PROVIDER,,,,,,
143027,36-2680776,MARIANJOY REHABILITATION CENTER,Marianjoy Rehabilitation Hospital,,26W171 ROOSEVELT ROAD,WHEATON,IL,60187,6309098000,U,Rehabilitation,FOR PROFIT - INDIVIDUAL,ACTIVE PROVIDER,2023-03-01,36-2680776-marianjoy-rehabilitation-hospital-standard-charges.json,https://www.nm.org/-/media/northwestern/resources/patients-and-visitors/billing-and-insurance/chargemaster/36-2680776-marianjoy-rehabilitation-hospital-standard-charges.json,,https://www.nm.org/patients-and-visitors/billing-and-insurance/chargemaster,
143028,,VAN MATRE ENCOMPASS HEALTH REHABILITATION INSTITUT,Van Matre Encompass Health  Rehabilitation Hospital,,950 S MULFORD RD,ROCKFORD,IL,61108,8153818548,U,Rehabilitation,NONPROFIT - CHURCH RELATED,ACTIVE PROVIDER,,,,,,
143029,,ANDERSON REHABILITATION INSTITUTE,Anderson Rehabilitation Institute,,3402 ANDERSON HEALTHCARE DR,EDWARDSVILLE,IL,62025,6183077900,U,Rehabilitation,NONPROFIT - CHURCH RELATED,ACTIVE PROVIDER,,,,,,
143030,,THE REHABILITATION INSTITUTE OF SOUTHERN ILLINOIS,The Rehabilitation Institute of Southern Illinois,,2351 FRANK SCOTT PARKWAY EAST,SHILOH,IL,62269,6182006762,U,Rehabilitation,NONPROFIT - CHURCH RELATED,ACTIVE PROVIDER,,,,,,
143031,,ENCOMPASS HEALTH REHAB INSTITUTE OF LIBERTYVILLE,Encompass Health Rehabilitation Institute of Libertyville,,1201 AMERICAN WAY,LIBERTYVILLE,IL,60048,8473716521,U,Rehabilitation,NONPROFIT - CHURCH RELATED,ACTIVE PROVIDER,,,,,,
143032,,THE QUAD CITIES REHABILITATION INSTITUTE,The Quad Cities Rehabilitation Institute,,653 52ND AVE,MOLINE,IL,61265,3095813600,U,Rehabilitation,NONPROFIT - CHURCH RELATED,ACTIVE PROVIDER,,,,,,
143300,,ANN & ROBERT H LURIE CHILDRENS HOSPITAL OF CHICAGO,Ann & Robert H. Lurie Children's Hospital of Chicago,,"225 E CHICAGO AVE, BOX 140",CHICAGO,IL,60611,3122274000,U,Childrens Hospitals,FOR PROFIT - PARTNERSHIP,ACTIVE PROVIDER,,,,,,
143301,,LARABIDA CHILDRENS HOSPITAL I,La Rabida Children's Hospital,,E 65TH ST AT LAKE MICHIGAN,CHICAGO,IL,60649,7733636700,U,Childrens Hospitals,FOR PROFIT - PARTNERSHIP,ACTIVE PROVIDER,,,,,,
143302,,SHRINERS HOSPITAL FOR CHILDREN,Shriners Children's Chicago,,2211 NORTH OAK PARK AVE,CHICAGO,IL,60707,7736225400,U,Childrens Hospitals,FOR PROFIT - PARTNERSHIP,ACTIVE PROVIDER,,,,,,
144002,,ILLINOIS STATE PSYCHIATRIC INSTITUTE,,,1153 NORTH LAVERGENE AVENUE,CHICAGO,IL,60651,7086144000,U,Psychiatric,NONPROFIT - OTHER,"VOLUNTARY-MERGER, CLOSURE",,,,,,
144005,,AURORA CHICAGO LAKESHORE HOSPITAL,,,4840 N MARINE DR,CHICAGO,IL,60640,7738789700,U,Psychiatric,NONPROFIT - CHURCH RELATED,INVOLUNTARY-FAILURE TO MEET AGREEMENT,,,,,,
144009,,RIVEREDGE HOSPITAL,Riveredge Hospital,,8311 WEST ROOSEVELT ROAD,FOREST PARK,IL,60130,7087717000,U,Psychiatric,NONPROFIT - CHURCH RELATED,ACTIVE PROVIDER,,,,,,
144010,,CHICAGO-READ MENTAL HEALTH CENTER,Chicago-Read Mental Health Center,,4200 N OAK PARK AVE,CHICAGO,IL,60634,7737944000,U,Psychiatric,NONPROFIT - OTHER,ACTIVE PROVIDER,,,,,,
144016,,ALTON MENTAL HEALTH CENTER,Alton Mental Health Center,,4500 COLLEGE AVENUE,ALTON,IL,62002,6184743800,U,Psychiatric,NONPROFIT - OTHER,ACTIVE PROVIDER,,,,,,
144019,,TINLEY PK MENTAL HEALTH CTR,,,7400 W 183RD ST,TINLEY PARK,IL,60477,7086144002,U,Psychiatric,GOVERNMENT - STATE,INVOLUNTARY-FAILURE TO MEET HEALTH/SAFETY REQ,,,,,,
144020,,JOHN J MADDEN MENTAL HLTH CTR,,,1200 S 1ST AVE,HINES,IL,60141,3123459870,U,Psychiatric,NONPROFIT - OTHER,INVOLUNTARY-FAILURE TO MEET HEALTH/SAFETY REQ,,,,,,
144021,,ANDREW MCFARLAND MENTAL HLTH CTR,McFarland Mental Health Center,,901 SOUTHWIND RD,SPRINGFIELD,IL,62703,2177866900,U,Psychiatric,NONPROFIT - OTHER,ACTIVE PROVIDER,,,,,,
144022,,GEORGE A ZELLER MENTAL HLTH CTR,,,5407 NORTH UNIVERSITY AVE,PEORIA,IL,61614,3096935228,U,Psychiatric,NONPROFIT - OTHER,"VOLUNTARY-MERGER, CLOSURE",,,,,,
144023,,H DOUGLAS SINGER MENTAL HLTH CTR,,,4402 N MAIN ST,ROCKFORD,IL,61103,8159877096,U,Psychiatric,NONPROFIT - OTHER,"VOLUNTARY-MERGER, CLOSURE",,,,,,
144024,,CPC OLD ORCHARD HOSPITAL,,,9700 KENTON AVENUE,SKOKIE,IL,60076,7086790760,U,Psychiatric,NONPROFIT - CHURCH RELATED,INVOLUNTARY-FAILURE TO MEET AGREEMENT,,,,,,
144025,,CHARTER BEHAVIORAL HLTH SYS CHGO INC,,,4700 N CLARENDON AVE,CHICAGO,IL,60640,3127287100,U,Psychiatric,FOR PROFIT - PARTNERSHIP,"VOLUNTARY-MERGER, CLOSURE",,,,,,
144026,,HARTGROVE HOSPITAL,Hartgrove Behavioral Health System,,5730 W ROOSEVELT ROAD,CHICAGO,IL,60644,7734131700,U,Psychiatric,NONPROFIT - CHURCH RELATED,ACTIVE PROVIDER,,,,,,
144027,,CHOATE MENTAL HEALTH CENTER,,,1000 NORTH MAIN STREET,ANNA,IL,62906,6188335161,R,Psychiatric,NONPROFIT - OTHER,INVOLUNTARY-FAILURE TO MEET AGREEMENT,,,,,,
144028,,JOHN J MADDEN MENTAL HEALTH CENTER,Madden Mental Health Center,,1200 S FIRST AVE,HINES,IL,60141,7085317202,U,Psychiatric,NONPROFIT - OTHER,ACTIVE PROVIDER,,,,,,
144029,,"PAVILION FOUNDATION, THE",The Pavilion Behavioral Health System,,809 W CHURCH ST,CHAMPAIGN,IL,61820,2173731700,U,Psychiatric,FOR PROFIT - PARTNERSHIP,ACTIVE PROVIDER,,,,,,
144030,,"ROCK CREEK CENTER,THE",,,40 TIMBERLINE DR,LEMONT,IL,60439,6302573636,U,Psychiatric,FOR PROFIT - PARTNERSHIP,"VOLUNTARY-MERGER, CLOSURE",,,,,,
144031,36-4251848,ALEXIAN BROTHERS BEHAVIORAL HLTH HOSP,Ascension Alexian Brothers Behavioral Health Hospital,,1650 MOON LAKE BLVD,HOFFMAN ESTATES,IL,60169,8478821600,U,Psychiatric,FOR PROFIT - INDIVIDUAL,ACTIVE PROVIDER,2022-09-30,364251848_alexian-brothers-behavioral-health-hospital_standardcharges.xlsx,https://healthcare.ascension.org/-/media/project/ascension/healthcare/price-transparency-files/il/364251848_alexian-brothers-behavioral-health-hospital_standardcharges.xlsx,,https://healthcare.ascension.org/price-transparency/price-transparency-files,
144032,,OAKWOOD HOSPITAL OF ROCKFORD,,,5510 E STATE ST,ROCKFORD,IL,61108,8153975500,U,Psychiatric,NONPROFIT - CHURCH RELATED,"VOLUNTARY-MERGER, CLOSURE",,,,,,
144033,,UNIVERSITY HOSPITAL,,,1116 N KEDZIE,CHICAGO,IL,60651,3122765200,U,Psychiatric,NONPROFIT - CHURCH RELATED,"VOLUNTARY-MERGER, CLOSURE",,,,,,
144034,,BHC STREAMWOOD HOSPITAL INC,Streamwood Behavioral Health Center,,1400 E IRVING PARK ROAD,STREAMWOOD,IL,60107,6308379000,U,Psychiatric,NONPROFIT - CHURCH RELATED,ACTIVE PROVIDER,,,,,,
144035,,LINDEN OAKS HOSPITAL,Linden Oaks Behavioral Health,,852 S WEST STREET,NAPERVILLE,IL,60540,6303055500,U,Psychiatric,FOR PROFIT - PARTNERSHIP,ACTIVE PROVIDER,,,,,,
144036,,MARYVILLE ACADEMY,,,555 WILSON LANE,DES PLAINES,IL,60016,7086354100,U,Psychiatric,NONPROFIT - CHURCH RELATED,VOLUNTARY-OTHER REASON FOR WITHDRAWAL,,,,,,
144037,,ELGIN MENTAL HEALTH CENTER,Elgin Mental Health Center,,750 S STATE ST,ELGIN,IL,60123,8477421040,U,Psychiatric,NONPROFIT - OTHER,ACTIVE PROVIDER,,,,,,
144038,,CHOATE MENTAL HEALTH & DEVELOPMENT CTR,Choate Mental Health & Development Center,,1000 N MAIN ST,ANNA,IL,62906,6188335161,R,Psychiatric,NONPROFIT - OTHER,ACTIVE PROVIDER,,,,,,
144039,,GARFIELD PARK HOSPITAL,Garfield Park Behavioral Hospital,,520 N RIDGEWAY AVE,CHICAGO,IL,60624,7732653700,U,Psychiatric,NONPROFIT - CHURCH RELATED,ACTIVE PROVIDER,,,,,,
144040,,CHICAGO BEHAVIORAL HOSPITAL,Chicago Behavioral Hospital,,555 WILSON LANE,DES PLAINES,IL,60016,8477685430,U,Psychiatric,NONPROFIT - CHURCH RELATED,ACTIVE PROVIDER,,,,,,
144041,,SILVER OAKS BEHAVIORAL HOSPITAL,Silver Oaks Behavioral Hospital,,1004 PAWLAK PARKWAY,NEW LENOX,IL,60451,2122435565,U,Psychiatric,NONPROFIT - CHURCH RELATED,ACTIVE PROVIDER,,,,,,
144042,,LAKE BEHAVIORAL HOSPITAL,Lake Behavioral Hospital,,2615 W WASHINGTON ST,WAUKEGAN,IL,60085,8472493900,U,Psychiatric,NONPROFIT - CHURCH RELATED,ACTIVE PROVIDER,,,,,,
144043,,MONTROSE BEHAVIORAL HEALTH HOSPITAL,Montrose Behavioral Health Hospital,,4720 N CLARENSON AVENUE,CHICAGO,IL,60640,7738789700,U,Psychiatric,NONPROFIT - CHURCH RELATED,ACTIVE PROVIDER,,,,,,
149801,,UNIVERSITY OF CHICAGO HOSPITALS,,,5841 SOUTH MARYLAND,CHICAGO,IL,60637,7737021000,U,Transplant Hospitals,,ACTIVE PROVIDER,,,,,,
149802,,LOYOLA UNIVERSITY MEDICAL CENTER,,,2160 SOUTH 1ST AVENUE,MAYWOOD,IL,60153,7082169000,U,Transplant Hospitals,,ACTIVE PROVIDER,,,,,,
149803,,RUSH UNIVERSITY MEDICAL CENTER,,,1653 WEST CONGRESS PARKWAY,CHICAGO,IL,60612,3129425000,U,Transplant Hospitals,,ACTIVE PROVIDER,,,,,,
149804,,ANN & ROBERT H LURIE CHILDRENS HOSPITAL OF CHICAGO,,,"225 E CHICAGO AVENUE, BOX 57",CHICAGO,IL,60611,7738804092,U,Transplant Hospitals,,ACTIVE PROVIDER,,,,,,
149805,,UNIVERSITY OF ILLINOIS MEDICAL CENTER,,,"1740 WEST TAYLOR, SUITE 1400",CHICAGO,IL,60612,3129963900,U,Transplant Hospitals,,ACTIVE PROVIDER,,,,,,
149806,,NORTHWESTERN MEMORIAL HOSPITAL,,,251 EAST HURON STREET,CHICAGO,IL,60611,3126951705,U,Transplant Hospitals,,ACTIVE PROVIDER,,,,,,
149807,,ST FRANCIS MEDICAL CENTER TRANSPLANT,,,530 NE GLEN OAK AVENUE,PEORIA,IL,61637,3096554101,U,Transplant Hospitals,,ACTIVE PROVIDER,,,,,,
149808,,MEMORIAL MEDICAL CENTER,,,701 NORTH FIRST STREET - TRANSPLANT SERVICES,SPRINGFIELD,IL,62781,2177577886,U,Transplant Hospitals,,ACTIVE PROVIDER,,,,,,
149809,,ADVOCATE CHRIST MEDICAL CENTER,,,4400 WEST 95TH STREET,OAK LAWN,IL,60453,7086842653,U,Transplant Hospitals,,ACTIVE PROVIDER,,,,,,